<?xml version="1.0" encoding="UTF-8"?>
<gpx creator="Wikiloc - https://www.wikiloc.com" version="1.1" xmlns="http://www.topografix.com/GPX/1/1" xmlns:xsi="http://www.w3.org/2001/XMLSchema-instance" xsi:schemaLocation="http://www.topografix.com/GPX/1/1 http://www.topografix.com/GPX/1/1/gpx.xsd">
  <metadata>
    <name>Wikiloc - RSD - Dömsöd Zátony-sziget</name>
    <author>
      <name>bata béla</name>
      <link href="https://www.wikiloc.com/wikiloc/user.do?id=21938865">
        <text>bata béla on Wikiloc</text>
      </link>
    </author>
    <link href="https://www.wikiloc.com/stand-up-paddle-sup-trails/rsd-domsod-zatony-sziget-270218490">
      <text>RSD - Dömsöd Zátony-sziget on Wikiloc</text>
    </link>
    <time>2026-06-19T20:57:47.967Z</time>
  </metadata>
  <trk>
    <name>RSD - Dömsöd Zátony-sziget - Wikiloc</name>
    <cmt>Zátonysziget</cmt>
    <desc>Zátonysziget</desc>
    <trkseg>
      <trkpt lat="47.104943" lon="19.002781">
        <ele>94.678</ele>
        <time>2026-06-19T20:58:34.210171428Z</time>
      </trkpt>
      <trkpt lat="47.104937" lon="19.002984">
        <ele>95.333</ele>
        <time>2026-06-19T20:58:54.210175636Z</time>
      </trkpt>
      <trkpt lat="47.104905" lon="19.002952">
        <ele>94.926</ele>
        <time>2026-06-19T20:59:14.210179072Z</time>
      </trkpt>
      <trkpt lat="47.104929" lon="19.002925">
        <ele>95.009</ele>
        <time>2026-06-19T20:59:34.210184402Z</time>
      </trkpt>
      <trkpt lat="47.104936" lon="19.003079">
        <ele>95.689</ele>
        <time>2026-06-19T20:59:54.210187808Z</time>
      </trkpt>
      <trkpt lat="47.104974" lon="19.003144">
        <ele>95.874</ele>
        <time>2026-06-19T21:00:14.210190483Z</time>
      </trkpt>
      <trkpt lat="47.105202" lon="19.003257">
        <ele>96.567</ele>
        <time>2026-06-19T21:00:34.210193208Z</time>
      </trkpt>
      <trkpt lat="47.105189" lon="19.003179">
        <ele>96.319</ele>
        <time>2026-06-19T21:00:54.210195793Z</time>
      </trkpt>
      <trkpt lat="47.105122" lon="19.003243">
        <ele>96.378</ele>
        <time>2026-06-19T21:01:14.210198368Z</time>
      </trkpt>
      <trkpt lat="47.104941" lon="19.003023">
        <ele>95.595</ele>
        <time>2026-06-19T21:01:34.210201023Z</time>
      </trkpt>
      <trkpt lat="47.104926" lon="19.002719">
        <ele>94.671</ele>
        <time>2026-06-19T21:01:54.210203548Z</time>
      </trkpt>
      <trkpt lat="47.104941" lon="19.003102">
        <ele>95.666</ele>
        <time>2026-06-19T21:02:14.210206694Z</time>
      </trkpt>
      <trkpt lat="47.105185" lon="19.003236">
        <ele>96.417</ele>
        <time>2026-06-19T21:02:34.210209339Z</time>
      </trkpt>
      <trkpt lat="47.105142" lon="19.003225">
        <ele>96.344</ele>
        <time>2026-06-19T21:02:54.210212064Z</time>
      </trkpt>
      <trkpt lat="47.105192" lon="19.003233">
        <ele>96.405</ele>
        <time>2026-06-19T21:03:14.210214779Z</time>
      </trkpt>
      <trkpt lat="47.105183" lon="19.002991">
        <ele>95.915</ele>
        <time>2026-06-19T21:03:34.210217334Z</time>
      </trkpt>
      <trkpt lat="47.105148" lon="19.003169">
        <ele>96.209</ele>
        <time>2026-06-19T21:03:54.210219969Z</time>
      </trkpt>
      <trkpt lat="47.105194" lon="19.003130">
        <ele>96.296</ele>
        <time>2026-06-19T21:04:14.210222644Z</time>
      </trkpt>
      <trkpt lat="47.105732" lon="19.003117">
        <ele>97.961</ele>
        <time>2026-06-19T21:04:34.210225319Z</time>
      </trkpt>
      <trkpt lat="47.105906" lon="19.003010">
        <ele>97.784</ele>
        <time>2026-06-19T21:04:54.213377310Z</time>
      </trkpt>
      <trkpt lat="47.106251" lon="19.002942">
        <ele>96.496</ele>
        <time>2026-06-19T21:05:14.213382400Z</time>
      </trkpt>
      <trkpt lat="47.106801" lon="19.002748">
        <ele>95.975</ele>
        <time>2026-06-19T21:05:34.213385345Z</time>
      </trkpt>
      <trkpt lat="47.106935" lon="19.002655">
        <ele>96.522</ele>
        <time>2026-06-19T21:05:54.213388010Z</time>
      </trkpt>
      <trkpt lat="47.106975" lon="19.002679">
        <ele>96.818</ele>
        <time>2026-06-19T21:06:14.213393080Z</time>
      </trkpt>
      <trkpt lat="47.107011" lon="19.002637">
        <ele>96.793</ele>
        <time>2026-06-19T21:06:34.213395805Z</time>
      </trkpt>
      <trkpt lat="47.107066" lon="19.002678">
        <ele>97.174</ele>
        <time>2026-06-19T21:06:54.213398780Z</time>
      </trkpt>
      <trkpt lat="47.107381" lon="19.002569">
        <ele>97.483</ele>
        <time>2026-06-19T21:07:14.213401706Z</time>
      </trkpt>
      <trkpt lat="47.107429" lon="19.002599">
        <ele>97.625</ele>
        <time>2026-06-19T21:07:34.213404501Z</time>
      </trkpt>
      <trkpt lat="47.107646" lon="19.002386">
        <ele>96.817</ele>
        <time>2026-06-19T21:07:54.213407206Z</time>
      </trkpt>
      <trkpt lat="47.108449" lon="19.002099">
        <ele>96.209</ele>
        <time>2026-06-19T21:08:14.213409971Z</time>
      </trkpt>
      <trkpt lat="47.108671" lon="19.001960">
        <ele>95.850</ele>
        <time>2026-06-19T21:08:34.213412797Z</time>
      </trkpt>
      <trkpt lat="47.109002" lon="19.001871">
        <ele>94.615</ele>
        <time>2026-06-19T21:08:54.213415402Z</time>
      </trkpt>
      <trkpt lat="47.109123" lon="19.001715">
        <ele>94.298</ele>
        <time>2026-06-19T21:09:14.213418067Z</time>
      </trkpt>
      <trkpt lat="47.109287" lon="19.001663">
        <ele>94.440</ele>
        <time>2026-06-19T21:09:34.213420681Z</time>
      </trkpt>
      <trkpt lat="47.109475" lon="19.001529">
        <ele>95.259</ele>
        <time>2026-06-19T21:09:54.213423266Z</time>
      </trkpt>
      <trkpt lat="47.109681" lon="19.001313">
        <ele>95.646</ele>
        <time>2026-06-19T21:10:14.213425881Z</time>
      </trkpt>
      <trkpt lat="47.109823" lon="19.001309">
        <ele>96.062</ele>
        <time>2026-06-19T21:10:34.213428596Z</time>
      </trkpt>
      <trkpt lat="47.110100" lon="19.000929">
        <ele>96.227</ele>
        <time>2026-06-19T21:10:54.213431261Z</time>
      </trkpt>
      <trkpt lat="47.110007" lon="19.000922">
        <ele>95.158</ele>
        <time>2026-06-19T21:11:14.213433876Z</time>
      </trkpt>
      <trkpt lat="47.110030" lon="19.000944">
        <ele>95.488</ele>
        <time>2026-06-19T21:11:34.213436591Z</time>
      </trkpt>
      <trkpt lat="47.110060" lon="19.000726">
        <ele>96.024</ele>
        <time>2026-06-19T21:11:54.213439356Z</time>
      </trkpt>
      <trkpt lat="47.110093" lon="19.000819">
        <ele>96.026</ele>
        <time>2026-06-19T21:12:14.213441951Z</time>
      </trkpt>
      <trkpt lat="47.110303" lon="19.000754">
        <ele>98.209</ele>
        <time>2026-06-19T21:12:34.213444596Z</time>
      </trkpt>
      <trkpt lat="47.110500" lon="19.000536">
        <ele>98.720</ele>
        <time>2026-06-19T21:12:54.213447251Z</time>
      </trkpt>
      <trkpt lat="47.110625" lon="19.000464">
        <ele>99.145</ele>
        <time>2026-06-19T21:13:14.213449856Z</time>
      </trkpt>
      <trkpt lat="47.110812" lon="19.000221">
        <ele>97.158</ele>
        <time>2026-06-19T21:13:34.213452541Z</time>
      </trkpt>
      <trkpt lat="47.110976" lon="19.000113">
        <ele>97.520</ele>
        <time>2026-06-19T21:13:54.213455136Z</time>
      </trkpt>
      <trkpt lat="47.111226" lon="19.000047">
        <ele>98.439</ele>
        <time>2026-06-19T21:14:14.213457691Z</time>
      </trkpt>
      <trkpt lat="47.111309" lon="18.999944">
        <ele>97.526</ele>
        <time>2026-06-19T21:14:34.213460356Z</time>
      </trkpt>
      <trkpt lat="47.111450" lon="19.000011">
        <ele>97.992</ele>
        <time>2026-06-19T21:14:54.213463041Z</time>
      </trkpt>
      <trkpt lat="47.111711" lon="18.999606">
        <ele>95.837</ele>
        <time>2026-06-19T21:15:14.213465596Z</time>
      </trkpt>
      <trkpt lat="47.112104" lon="18.999231">
        <ele>97.168</ele>
        <time>2026-06-19T21:15:34.213468251Z</time>
      </trkpt>
      <trkpt lat="47.112480" lon="18.998720">
        <ele>96.134</ele>
        <time>2026-06-19T21:15:54.213489470Z</time>
      </trkpt>
      <trkpt lat="47.112532" lon="18.998666">
        <ele>95.955</ele>
        <time>2026-06-19T21:16:14.213492746Z</time>
      </trkpt>
      <trkpt lat="47.112516" lon="18.998765">
        <ele>95.910</ele>
        <time>2026-06-19T21:16:34.213495472Z</time>
      </trkpt>
      <trkpt lat="47.113027" lon="18.998202">
        <ele>95.509</ele>
        <time>2026-06-19T21:16:54.213498106Z</time>
      </trkpt>
      <trkpt lat="47.113170" lon="18.998114">
        <ele>95.615</ele>
        <time>2026-06-19T21:17:14.213500751Z</time>
      </trkpt>
      <trkpt lat="47.113847" lon="18.997272">
        <ele>96.210</ele>
        <time>2026-06-19T21:17:34.213503346Z</time>
      </trkpt>
      <trkpt lat="47.114127" lon="18.997056">
        <ele>96.973</ele>
        <time>2026-06-19T21:17:54.213505971Z</time>
      </trkpt>
      <trkpt lat="47.114303" lon="18.996788">
        <ele>97.575</ele>
        <time>2026-06-19T21:18:14.213508596Z</time>
      </trkpt>
      <trkpt lat="47.114980" lon="18.996161">
        <ele>99.954</ele>
        <time>2026-06-19T21:18:34.213511241Z</time>
      </trkpt>
      <trkpt lat="47.115052" lon="18.996015">
        <ele>99.451</ele>
        <time>2026-06-19T21:18:54.213513786Z</time>
      </trkpt>
      <trkpt lat="47.115215" lon="18.995911">
        <ele>99.127</ele>
        <time>2026-06-19T21:19:14.213516371Z</time>
      </trkpt>
      <trkpt lat="47.115473" lon="18.995494">
        <ele>97.722</ele>
        <time>2026-06-19T21:19:34.213518996Z</time>
      </trkpt>
      <trkpt lat="47.115588" lon="18.995369">
        <ele>97.353</ele>
        <time>2026-06-19T21:19:54.213521671Z</time>
      </trkpt>
      <trkpt lat="47.115727" lon="18.995311">
        <ele>97.135</ele>
        <time>2026-06-19T21:20:14.213524376Z</time>
      </trkpt>
      <trkpt lat="47.116227" lon="18.994594">
        <ele>97.686</ele>
        <time>2026-06-19T21:20:34.213527011Z</time>
      </trkpt>
      <trkpt lat="47.116304" lon="18.994555">
        <ele>98.014</ele>
        <time>2026-06-19T21:20:54.213529656Z</time>
      </trkpt>
      <trkpt lat="47.116280" lon="18.994521">
        <ele>97.809</ele>
        <time>2026-06-19T21:21:14.213532220Z</time>
      </trkpt>
      <trkpt lat="47.116373" lon="18.994531">
        <ele>98.255</ele>
        <time>2026-06-19T21:21:34.213534835Z</time>
      </trkpt>
      <trkpt lat="47.116510" lon="18.994153">
        <ele>97.060</ele>
        <time>2026-06-19T21:21:54.213537500Z</time>
      </trkpt>
      <trkpt lat="47.116817" lon="18.993740">
        <ele>95.243</ele>
        <time>2026-06-19T21:22:14.213540095Z</time>
      </trkpt>
      <trkpt lat="47.116920" lon="18.993414">
        <ele>95.015</ele>
        <time>2026-06-19T21:22:34.213542910Z</time>
      </trkpt>
      <trkpt lat="47.117043" lon="18.993220">
        <ele>96.134</ele>
        <time>2026-06-19T21:22:54.213545525Z</time>
      </trkpt>
      <trkpt lat="47.117070" lon="18.993012">
        <ele>96.211</ele>
        <time>2026-06-19T21:23:14.213548080Z</time>
      </trkpt>
      <trkpt lat="47.117266" lon="18.992541">
        <ele>96.237</ele>
        <time>2026-06-19T21:23:34.213550675Z</time>
      </trkpt>
      <trkpt lat="47.117311" lon="18.992167">
        <ele>97.062</ele>
        <time>2026-06-19T21:23:54.213553260Z</time>
      </trkpt>
      <trkpt lat="47.117364" lon="18.992092">
        <ele>97.053</ele>
        <time>2026-06-19T21:24:14.213555865Z</time>
      </trkpt>
      <trkpt lat="47.117346" lon="18.991941">
        <ele>97.067</ele>
        <time>2026-06-19T21:24:34.213558530Z</time>
      </trkpt>
      <trkpt lat="47.117366" lon="18.992010">
        <ele>97.081</ele>
        <time>2026-06-19T21:24:54.213561154Z</time>
      </trkpt>
      <trkpt lat="47.117457" lon="18.991932">
        <ele>97.019</ele>
        <time>2026-06-19T21:25:14.213563699Z</time>
      </trkpt>
      <trkpt lat="47.117477" lon="18.991847">
        <ele>97.409</ele>
        <time>2026-06-19T21:25:34.213566264Z</time>
      </trkpt>
      <trkpt lat="47.117515" lon="18.991858">
        <ele>97.338</ele>
        <time>2026-06-19T21:25:54.213568879Z</time>
      </trkpt>
      <trkpt lat="47.117567" lon="18.991539">
        <ele>97.543</ele>
        <time>2026-06-19T21:26:14.213571454Z</time>
      </trkpt>
      <trkpt lat="47.117762" lon="18.991202">
        <ele>96.336</ele>
        <time>2026-06-19T21:26:34.213574029Z</time>
      </trkpt>
      <trkpt lat="47.117874" lon="18.990698">
        <ele>96.228</ele>
        <time>2026-06-19T21:26:54.213576573Z</time>
      </trkpt>
      <trkpt lat="47.118103" lon="18.990090">
        <ele>97.277</ele>
        <time>2026-06-19T21:27:14.213579158Z</time>
      </trkpt>
      <trkpt lat="47.118275" lon="18.989804">
        <ele>97.154</ele>
        <time>2026-06-19T21:27:34.213581813Z</time>
      </trkpt>
      <trkpt lat="47.118371" lon="18.989328">
        <ele>97.450</ele>
        <time>2026-06-19T21:27:54.213584568Z</time>
      </trkpt>
      <trkpt lat="47.118469" lon="18.989309">
        <ele>98.235</ele>
        <time>2026-06-19T21:28:14.213587253Z</time>
      </trkpt>
      <trkpt lat="47.118550" lon="18.989002">
        <ele>98.066</ele>
        <time>2026-06-19T21:28:34.213589888Z</time>
      </trkpt>
      <trkpt lat="47.118630" lon="18.989023">
        <ele>98.647</ele>
        <time>2026-06-19T21:28:54.213592643Z</time>
      </trkpt>
      <trkpt lat="47.118691" lon="18.988705">
        <ele>97.629</ele>
        <time>2026-06-19T21:29:14.213595308Z</time>
      </trkpt>
      <trkpt lat="47.118663" lon="18.988600">
        <ele>97.221</ele>
        <time>2026-06-19T21:29:34.213597923Z</time>
      </trkpt>
      <trkpt lat="47.118726" lon="18.988603">
        <ele>97.409</ele>
        <time>2026-06-19T21:29:54.213601089Z</time>
      </trkpt>
      <trkpt lat="47.118790" lon="18.988508">
        <ele>97.676</ele>
        <time>2026-06-19T21:30:14.213603724Z</time>
      </trkpt>
      <trkpt lat="47.118970" lon="18.988061">
        <ele>97.341</ele>
        <time>2026-06-19T21:30:34.213606299Z</time>
      </trkpt>
      <trkpt lat="47.119148" lon="18.987951">
        <ele>97.644</ele>
        <time>2026-06-19T21:30:54.213608854Z</time>
      </trkpt>
      <trkpt lat="47.119365" lon="18.987476">
        <ele>95.086</ele>
        <time>2026-06-19T21:31:14.213611479Z</time>
      </trkpt>
      <trkpt lat="47.119528" lon="18.987325">
        <ele>95.325</ele>
        <time>2026-06-19T21:31:34.213614043Z</time>
      </trkpt>
      <trkpt lat="47.119709" lon="18.987035">
        <ele>96.642</ele>
        <time>2026-06-19T21:31:54.213616578Z</time>
      </trkpt>
      <trkpt lat="47.119922" lon="18.986845">
        <ele>98.848</ele>
        <time>2026-06-19T21:32:14.213619083Z</time>
      </trkpt>
      <trkpt lat="47.120199" lon="18.986425">
        <ele>100.573</ele>
        <time>2026-06-19T21:32:34.213621798Z</time>
      </trkpt>
      <trkpt lat="47.120194" lon="18.986487">
        <ele>100.534</ele>
        <time>2026-06-19T21:32:54.213625265Z</time>
      </trkpt>
      <trkpt lat="47.120457" lon="18.986200">
        <ele>101.661</ele>
        <time>2026-06-19T21:33:14.213629663Z</time>
      </trkpt>
      <trkpt lat="47.120572" lon="18.986148">
        <ele>102.121</ele>
        <time>2026-06-19T21:33:34.213632728Z</time>
      </trkpt>
      <trkpt lat="47.120529" lon="18.986129">
        <ele>101.913</ele>
        <time>2026-06-19T21:33:54.213635414Z</time>
      </trkpt>
      <trkpt lat="47.120546" lon="18.986192">
        <ele>102.009</ele>
        <time>2026-06-19T21:34:14.213638129Z</time>
      </trkpt>
      <trkpt lat="47.120604" lon="18.986182">
        <ele>102.278</ele>
        <time>2026-06-19T21:34:34.213640814Z</time>
      </trkpt>
      <trkpt lat="47.120916" lon="18.985759">
        <ele>103.273</ele>
        <time>2026-06-19T21:34:54.213643408Z</time>
      </trkpt>
      <trkpt lat="47.121023" lon="18.985692">
        <ele>103.336</ele>
        <time>2026-06-19T21:35:14.213646043Z</time>
      </trkpt>
      <trkpt lat="47.121181" lon="18.985436">
        <ele>102.938</ele>
        <time>2026-06-19T21:35:34.213654529Z</time>
      </trkpt>
      <trkpt lat="47.121348" lon="18.985349">
        <ele>102.417</ele>
        <time>2026-06-19T21:35:54.213657234Z</time>
      </trkpt>
      <trkpt lat="47.121545" lon="18.985030">
        <ele>101.114</ele>
        <time>2026-06-19T21:36:14.213659879Z</time>
      </trkpt>
      <trkpt lat="47.121543" lon="18.984905">
        <ele>101.270</ele>
        <time>2026-06-19T21:36:34.213662564Z</time>
      </trkpt>
      <trkpt lat="47.121683" lon="18.984872">
        <ele>101.135</ele>
        <time>2026-06-19T21:36:54.213665149Z</time>
      </trkpt>
      <trkpt lat="47.121872" lon="18.984663">
        <ele>101.646</ele>
        <time>2026-06-19T21:37:14.213667724Z</time>
      </trkpt>
      <trkpt lat="47.121964" lon="18.984692">
        <ele>102.072</ele>
        <time>2026-06-19T21:37:34.213670409Z</time>
      </trkpt>
      <trkpt lat="47.121853" lon="18.984587">
        <ele>101.513</ele>
        <time>2026-06-19T21:37:54.213673014Z</time>
      </trkpt>
      <trkpt lat="47.121998" lon="18.984296">
        <ele>101.014</ele>
        <time>2026-06-19T21:38:14.213675659Z</time>
      </trkpt>
      <trkpt lat="47.122038" lon="18.984314">
        <ele>101.009</ele>
        <time>2026-06-19T21:38:34.213678264Z</time>
      </trkpt>
      <trkpt lat="47.122200" lon="18.984022">
        <ele>99.619</ele>
        <time>2026-06-19T21:38:54.213680899Z</time>
      </trkpt>
      <trkpt lat="47.122456" lon="18.983863">
        <ele>99.854</ele>
        <time>2026-06-19T21:39:14.213683514Z</time>
      </trkpt>
      <trkpt lat="47.122596" lon="18.983439">
        <ele>99.597</ele>
        <time>2026-06-19T21:39:34.213686128Z</time>
      </trkpt>
      <trkpt lat="47.122641" lon="18.983401">
        <ele>99.559</ele>
        <time>2026-06-19T21:39:54.213688703Z</time>
      </trkpt>
      <trkpt lat="47.122737" lon="18.983475">
        <ele>99.528</ele>
        <time>2026-06-19T21:40:14.213691338Z</time>
      </trkpt>
      <trkpt lat="47.122783" lon="18.983456">
        <ele>99.545</ele>
        <time>2026-06-19T21:40:34.213693943Z</time>
      </trkpt>
      <trkpt lat="47.122982" lon="18.983169">
        <ele>99.791</ele>
        <time>2026-06-19T21:40:54.213696578Z</time>
      </trkpt>
      <trkpt lat="47.123114" lon="18.983063">
        <ele>99.896</ele>
        <time>2026-06-19T21:41:14.213699133Z</time>
      </trkpt>
      <trkpt lat="47.123112" lon="18.982975">
        <ele>100.147</ele>
        <time>2026-06-19T21:41:34.213701758Z</time>
      </trkpt>
      <trkpt lat="47.123217" lon="18.983005">
        <ele>99.679</ele>
        <time>2026-06-19T21:41:54.213704403Z</time>
      </trkpt>
      <trkpt lat="47.123215" lon="18.982852">
        <ele>100.205</ele>
        <time>2026-06-19T21:42:14.213707088Z</time>
      </trkpt>
      <trkpt lat="47.123169" lon="18.982815">
        <ele>100.525</ele>
        <time>2026-06-19T21:42:34.213709713Z</time>
      </trkpt>
      <trkpt lat="47.123117" lon="18.982878">
        <ele>100.409</ele>
        <time>2026-06-19T21:42:54.213712368Z</time>
      </trkpt>
      <trkpt lat="47.123116" lon="18.983037">
        <ele>99.879</ele>
        <time>2026-06-19T21:43:14.213714942Z</time>
      </trkpt>
      <trkpt lat="47.123193" lon="18.982883">
        <ele>100.134</ele>
        <time>2026-06-19T21:43:34.213717577Z</time>
      </trkpt>
      <trkpt lat="47.123255" lon="18.982852">
        <ele>100.077</ele>
        <time>2026-06-19T21:43:54.213720373Z</time>
      </trkpt>
      <trkpt lat="47.123247" lon="18.982910">
        <ele>99.849</ele>
        <time>2026-06-19T21:44:14.213723008Z</time>
      </trkpt>
      <trkpt lat="47.123317" lon="18.982984">
        <ele>99.338</ele>
        <time>2026-06-19T21:44:34.213725622Z</time>
      </trkpt>
      <trkpt lat="47.123382" lon="18.982933">
        <ele>99.015</ele>
        <time>2026-06-19T21:44:54.213728277Z</time>
      </trkpt>
      <trkpt lat="47.123342" lon="18.982658">
        <ele>99.921</ele>
        <time>2026-06-19T21:45:14.213730892Z</time>
      </trkpt>
      <trkpt lat="47.123247" lon="18.982735">
        <ele>100.336</ele>
        <time>2026-06-19T21:45:34.213733487Z</time>
      </trkpt>
      <trkpt lat="47.123330" lon="18.982746">
        <ele>100.067</ele>
        <time>2026-06-19T21:45:54.213736212Z</time>
      </trkpt>
      <trkpt lat="47.123415" lon="18.982445">
        <ele>99.419</ele>
        <time>2026-06-19T21:46:14.213738877Z</time>
      </trkpt>
      <trkpt lat="47.123740" lon="18.982232">
        <ele>97.509</ele>
        <time>2026-06-19T21:46:34.213741572Z</time>
      </trkpt>
      <trkpt lat="47.124311" lon="18.981486">
        <ele>98.819</ele>
        <time>2026-06-19T21:46:54.213744157Z</time>
      </trkpt>
      <trkpt lat="47.125396" lon="18.979655">
        <ele>101.009</ele>
        <time>2026-06-19T21:47:14.213746802Z</time>
      </trkpt>
      <trkpt lat="47.125569" lon="18.979649">
        <ele>99.913</ele>
        <time>2026-06-19T21:47:34.213749417Z</time>
      </trkpt>
      <trkpt lat="47.125724" lon="18.979294">
        <ele>98.278</ele>
        <time>2026-06-19T21:47:54.213751992Z</time>
      </trkpt>
      <trkpt lat="47.126684" lon="18.978027">
        <ele>97.111</ele>
        <time>2026-06-19T21:48:14.213754587Z</time>
      </trkpt>
      <trkpt lat="47.127083" lon="18.977534">
        <ele>97.583</ele>
        <time>2026-06-19T21:48:34.213757222Z</time>
      </trkpt>
      <trkpt lat="47.127375" lon="18.977342">
        <ele>96.152</ele>
        <time>2026-06-19T21:48:54.213759786Z</time>
      </trkpt>
      <trkpt lat="47.127468" lon="18.977125">
        <ele>95.219</ele>
        <time>2026-06-19T21:49:14.213762371Z</time>
      </trkpt>
      <trkpt lat="47.127592" lon="18.976984">
        <ele>95.065</ele>
        <time>2026-06-19T21:49:34.213764896Z</time>
      </trkpt>
      <trkpt lat="47.127621" lon="18.976839">
        <ele>95.090</ele>
        <time>2026-06-19T21:49:54.213767451Z</time>
      </trkpt>
      <trkpt lat="47.127889" lon="18.976492">
        <ele>96.011</ele>
        <time>2026-06-19T21:50:14.213769985Z</time>
      </trkpt>
      <trkpt lat="47.127999" lon="18.976442">
        <ele>96.635</ele>
        <time>2026-06-19T21:50:34.213772660Z</time>
      </trkpt>
      <trkpt lat="47.128047" lon="18.976271">
        <ele>97.486</ele>
        <time>2026-06-19T21:50:54.213775275Z</time>
      </trkpt>
      <trkpt lat="47.128308" lon="18.975917">
        <ele>99.014</ele>
        <time>2026-06-19T21:51:14.213777820Z</time>
      </trkpt>
      <trkpt lat="47.128497" lon="18.975812">
        <ele>97.709</ele>
        <time>2026-06-19T21:51:34.213780435Z</time>
      </trkpt>
      <trkpt lat="47.128910" lon="18.975069">
        <ele>93.895</ele>
        <time>2026-06-19T21:51:54.213783040Z</time>
      </trkpt>
      <trkpt lat="47.128984" lon="18.974981">
        <ele>94.550</ele>
        <time>2026-06-19T21:52:14.213785615Z</time>
      </trkpt>
      <trkpt lat="47.129200" lon="18.974928">
        <ele>95.413</ele>
        <time>2026-06-19T21:52:34.213788170Z</time>
      </trkpt>
      <trkpt lat="47.129233" lon="18.974879">
        <ele>95.895</ele>
        <time>2026-06-19T21:52:54.213790784Z</time>
      </trkpt>
      <trkpt lat="47.129249" lon="18.974636">
        <ele>96.974</ele>
        <time>2026-06-19T21:53:14.213793389Z</time>
      </trkpt>
      <trkpt lat="47.129431" lon="18.974334">
        <ele>98.991</ele>
        <time>2026-06-19T21:53:34.213795954Z</time>
      </trkpt>
      <trkpt lat="47.129707" lon="18.974021">
        <ele>99.057</ele>
        <time>2026-06-19T21:53:54.213799230Z</time>
      </trkpt>
      <trkpt lat="47.129752" lon="18.973861">
        <ele>98.812</ele>
        <time>2026-06-19T21:54:14.213801845Z</time>
      </trkpt>
      <trkpt lat="47.129965" lon="18.973548">
        <ele>97.873</ele>
        <time>2026-06-19T21:54:34.213804530Z</time>
      </trkpt>
      <trkpt lat="47.130134" lon="18.973074">
        <ele>96.089</ele>
        <time>2026-06-19T21:54:54.213807205Z</time>
      </trkpt>
      <trkpt lat="47.130199" lon="18.972679">
        <ele>96.306</ele>
        <time>2026-06-19T21:55:14.213814489Z</time>
      </trkpt>
      <trkpt lat="47.130387" lon="18.972569">
        <ele>96.526</ele>
        <time>2026-06-19T21:55:34.213817104Z</time>
      </trkpt>
      <trkpt lat="47.130478" lon="18.971735">
        <ele>97.309</ele>
        <time>2026-06-19T21:55:54.213819709Z</time>
      </trkpt>
      <trkpt lat="47.130664" lon="18.971265">
        <ele>97.840</ele>
        <time>2026-06-19T21:56:14.213822323Z</time>
      </trkpt>
      <trkpt lat="47.130695" lon="18.970941">
        <ele>98.065</ele>
        <time>2026-06-19T21:56:34.213824948Z</time>
      </trkpt>
      <trkpt lat="47.131148" lon="18.970022">
        <ele>96.028</ele>
        <time>2026-06-19T21:56:54.213827493Z</time>
      </trkpt>
      <trkpt lat="47.131191" lon="18.969837">
        <ele>96.230</ele>
        <time>2026-06-19T21:57:14.213830429Z</time>
      </trkpt>
      <trkpt lat="47.131644" lon="18.969216">
        <ele>95.299</ele>
        <time>2026-06-19T21:57:34.213833064Z</time>
      </trkpt>
      <trkpt lat="47.131811" lon="18.969112">
        <ele>95.536</ele>
        <time>2026-06-19T21:57:54.213835668Z</time>
      </trkpt>
      <trkpt lat="47.131848" lon="18.969041">
        <ele>95.712</ele>
        <time>2026-06-19T21:58:14.213838283Z</time>
      </trkpt>
      <trkpt lat="47.131932" lon="18.969019">
        <ele>96.037</ele>
        <time>2026-06-19T21:58:34.213840868Z</time>
      </trkpt>
      <trkpt lat="47.131901" lon="18.969157">
        <ele>95.818</ele>
        <time>2026-06-19T21:58:54.213843483Z</time>
      </trkpt>
      <trkpt lat="47.131901" lon="18.969122">
        <ele>95.866</ele>
        <time>2026-06-19T21:59:14.213846138Z</time>
      </trkpt>
      <trkpt lat="47.132067" lon="18.969154">
        <ele>96.429</ele>
        <time>2026-06-19T21:59:34.213848773Z</time>
      </trkpt>
      <trkpt lat="47.131855" lon="18.969147">
        <ele>95.721</ele>
        <time>2026-06-19T21:59:54.213851418Z</time>
      </trkpt>
      <trkpt lat="47.132017" lon="18.968171">
        <ele>95.809</ele>
        <time>2026-06-19T22:00:14.213854133Z</time>
      </trkpt>
      <trkpt lat="47.131921" lon="18.968936">
        <ele>95.918</ele>
        <time>2026-06-19T22:00:34.213856658Z</time>
      </trkpt>
      <trkpt lat="47.132084" lon="18.969087">
        <ele>96.563</ele>
        <time>2026-06-19T22:00:54.213859303Z</time>
      </trkpt>
      <trkpt lat="47.132141" lon="18.969078">
        <ele>96.736</ele>
        <time>2026-06-19T22:01:14.213861877Z</time>
      </trkpt>
      <trkpt lat="47.132254" lon="18.968899">
        <ele>97.138</ele>
        <time>2026-06-19T22:01:34.213864492Z</time>
      </trkpt>
      <trkpt lat="47.132184" lon="18.968923">
        <ele>96.947</ele>
        <time>2026-06-19T22:01:54.213867097Z</time>
      </trkpt>
      <trkpt lat="47.132125" lon="18.969085">
        <ele>96.774</ele>
        <time>2026-06-19T22:02:14.213869662Z</time>
      </trkpt>
      <trkpt lat="47.132033" lon="18.969146">
        <ele>96.340</ele>
        <time>2026-06-19T22:02:34.213872227Z</time>
      </trkpt>
      <trkpt lat="47.132121" lon="18.969313">
        <ele>96.355</ele>
        <time>2026-06-19T22:02:54.213874862Z</time>
      </trkpt>
      <trkpt lat="47.132078" lon="18.969139">
        <ele>96.526</ele>
        <time>2026-06-19T22:03:14.213877487Z</time>
      </trkpt>
      <trkpt lat="47.132268" lon="18.968894">
        <ele>97.246</ele>
        <time>2026-06-19T22:03:34.213880142Z</time>
      </trkpt>
      <trkpt lat="47.132267" lon="18.968755">
        <ele>97.288</ele>
        <time>2026-06-19T22:03:54.213882747Z</time>
      </trkpt>
      <trkpt lat="47.132221" lon="18.968662">
        <ele>97.016</ele>
        <time>2026-06-19T22:04:14.213885351Z</time>
      </trkpt>
      <trkpt lat="47.132019" lon="18.968506">
        <ele>96.309</ele>
        <time>2026-06-19T22:04:34.213887996Z</time>
      </trkpt>
      <trkpt lat="47.132104" lon="18.968543">
        <ele>96.636</ele>
        <time>2026-06-19T22:04:54.213890651Z</time>
      </trkpt>
      <trkpt lat="47.132197" lon="18.968491">
        <ele>96.951</ele>
        <time>2026-06-19T22:05:14.213893196Z</time>
      </trkpt>
      <trkpt lat="47.132367" lon="18.968238">
        <ele>97.584</ele>
        <time>2026-06-19T22:05:34.213895791Z</time>
      </trkpt>
      <trkpt lat="47.132337" lon="18.968245">
        <ele>97.446</ele>
        <time>2026-06-19T22:05:54.213898396Z</time>
      </trkpt>
      <trkpt lat="47.132304" lon="18.967999">
        <ele>96.235</ele>
        <time>2026-06-19T22:06:14.213901111Z</time>
      </trkpt>
      <trkpt lat="47.132130" lon="18.967806">
        <ele>92.422</ele>
        <time>2026-06-19T22:06:34.213903676Z</time>
      </trkpt>
      <trkpt lat="47.131700" lon="18.967771">
        <ele>92.018</ele>
        <time>2026-06-19T22:06:54.213906411Z</time>
      </trkpt>
      <trkpt lat="47.131365" lon="18.967360">
        <ele>92.063</ele>
        <time>2026-06-19T22:07:14.213909016Z</time>
      </trkpt>
      <trkpt lat="47.130913" lon="18.967281">
        <ele>92.034</ele>
        <time>2026-06-19T22:07:34.213911591Z</time>
      </trkpt>
      <trkpt lat="47.130687" lon="18.967158">
        <ele>92.099</ele>
        <time>2026-06-19T22:07:54.213914406Z</time>
      </trkpt>
      <trkpt lat="47.130263" lon="18.967036">
        <ele>92.007</ele>
        <time>2026-06-19T22:08:14.213917031Z</time>
      </trkpt>
      <trkpt lat="47.129521" lon="18.966981">
        <ele>92.027</ele>
        <time>2026-06-19T22:08:34.213919656Z</time>
      </trkpt>
      <trkpt lat="47.129200" lon="18.966831">
        <ele>92.009</ele>
        <time>2026-06-19T22:08:54.213922230Z</time>
      </trkpt>
      <trkpt lat="47.128148" lon="18.966684">
        <ele>92.041</ele>
        <time>2026-06-19T22:09:14.213924885Z</time>
      </trkpt>
      <trkpt lat="47.127221" lon="18.966777">
        <ele>92.056</ele>
        <time>2026-06-19T22:09:34.213927470Z</time>
      </trkpt>
      <trkpt lat="47.126954" lon="18.966739">
        <ele>92.089</ele>
        <time>2026-06-19T22:09:54.213930105Z</time>
      </trkpt>
      <trkpt lat="47.126691" lon="18.966780">
        <ele>92.051</ele>
        <time>2026-06-19T22:10:14.213932670Z</time>
      </trkpt>
      <trkpt lat="47.126310" lon="18.966750">
        <ele>92.090</ele>
        <time>2026-06-19T22:10:34.213935325Z</time>
      </trkpt>
      <trkpt lat="47.125732" lon="18.966935">
        <ele>92.047</ele>
        <time>2026-06-19T22:10:54.213937920Z</time>
      </trkpt>
      <trkpt lat="47.125392" lon="18.967162">
        <ele>92.023</ele>
        <time>2026-06-19T22:11:14.213940545Z</time>
      </trkpt>
      <trkpt lat="47.124979" lon="18.967203">
        <ele>92.028</ele>
        <time>2026-06-19T22:11:34.213943190Z</time>
      </trkpt>
      <trkpt lat="47.124054" lon="18.967668">
        <ele>92.049</ele>
        <time>2026-06-19T22:11:54.213945765Z</time>
      </trkpt>
      <trkpt lat="47.123551" lon="18.967963">
        <ele>96.726</ele>
        <time>2026-06-19T22:12:14.213948470Z</time>
      </trkpt>
      <trkpt lat="47.123299" lon="18.968206">
        <ele>96.547</ele>
        <time>2026-06-19T22:12:34.213951235Z</time>
      </trkpt>
      <trkpt lat="47.122809" lon="18.968464">
        <ele>92.911</ele>
        <time>2026-06-19T22:12:54.213953900Z</time>
      </trkpt>
      <trkpt lat="47.122549" lon="18.968509">
        <ele>92.109</ele>
        <time>2026-06-19T22:13:14.213956495Z</time>
      </trkpt>
      <trkpt lat="47.121475" lon="18.969042">
        <ele>92.014</ele>
        <time>2026-06-19T22:13:34.213959110Z</time>
      </trkpt>
      <trkpt lat="47.120756" lon="18.969651">
        <ele>92.069</ele>
        <time>2026-06-19T22:13:54.213961684Z</time>
      </trkpt>
      <trkpt lat="47.120574" lon="18.969655">
        <ele>92.092</ele>
        <time>2026-06-19T22:14:14.213964249Z</time>
      </trkpt>
      <trkpt lat="47.120281" lon="18.969383">
        <ele>92.034</ele>
        <time>2026-06-19T22:14:34.213966774Z</time>
      </trkpt>
      <trkpt lat="47.120221" lon="18.969418">
        <ele>92.023</ele>
        <time>2026-06-19T22:14:54.213973797Z</time>
      </trkpt>
      <trkpt lat="47.120097" lon="18.969619">
        <ele>92.060</ele>
        <time>2026-06-19T22:15:14.213976412Z</time>
      </trkpt>
      <trkpt lat="47.119770" lon="18.969887">
        <ele>92.056</ele>
        <time>2026-06-19T22:15:34.213978947Z</time>
      </trkpt>
      <trkpt lat="47.119342" lon="18.970501">
        <ele>92.021</ele>
        <time>2026-06-19T22:15:54.213981511Z</time>
      </trkpt>
      <trkpt lat="47.119133" lon="18.970682">
        <ele>92.092</ele>
        <time>2026-06-19T22:16:14.213984066Z</time>
      </trkpt>
      <trkpt lat="47.118620" lon="18.971366">
        <ele>92.299</ele>
        <time>2026-06-19T22:16:34.213986721Z</time>
      </trkpt>
      <trkpt lat="47.118202" lon="18.971817">
        <ele>92.007</ele>
        <time>2026-06-19T22:16:54.213989296Z</time>
      </trkpt>
      <trkpt lat="47.117813" lon="18.972070">
        <ele>92.027</ele>
        <time>2026-06-19T22:17:14.213991871Z</time>
      </trkpt>
      <trkpt lat="47.117527" lon="18.972133">
        <ele>92.009</ele>
        <time>2026-06-19T22:17:34.213994806Z</time>
      </trkpt>
      <trkpt lat="47.117387" lon="18.972230">
        <ele>92.091</ele>
        <time>2026-06-19T22:17:54.213997421Z</time>
      </trkpt>
      <trkpt lat="47.117155" lon="18.972549">
        <ele>92.096</ele>
        <time>2026-06-19T22:18:14.214000036Z</time>
      </trkpt>
      <trkpt lat="47.116654" lon="18.973048">
        <ele>92.079</ele>
        <time>2026-06-19T22:18:34.214002581Z</time>
      </trkpt>
      <trkpt lat="47.116588" lon="18.973310">
        <ele>92.021</ele>
        <time>2026-06-19T22:18:54.214005196Z</time>
      </trkpt>
      <trkpt lat="47.116495" lon="18.973413">
        <ele>92.010</ele>
        <time>2026-06-19T22:19:14.214007801Z</time>
      </trkpt>
      <trkpt lat="47.115884" lon="18.973743">
        <ele>92.037</ele>
        <time>2026-06-19T22:19:34.214010366Z</time>
      </trkpt>
      <trkpt lat="47.115330" lon="18.974363">
        <ele>92.033</ele>
        <time>2026-06-19T22:19:54.214012920Z</time>
      </trkpt>
      <trkpt lat="47.114955" lon="18.975017">
        <ele>92.078</ele>
        <time>2026-06-19T22:20:14.214015515Z</time>
      </trkpt>
      <trkpt lat="47.114726" lon="18.975206">
        <ele>92.039</ele>
        <time>2026-06-19T22:20:34.214018070Z</time>
      </trkpt>
      <trkpt lat="47.114553" lon="18.975433">
        <ele>92.025</ele>
        <time>2026-06-19T22:20:54.214020745Z</time>
      </trkpt>
      <trkpt lat="47.113916" lon="18.976534">
        <ele>92.026</ele>
        <time>2026-06-19T22:21:14.214023400Z</time>
      </trkpt>
      <trkpt lat="47.113525" lon="18.977439">
        <ele>92.008</ele>
        <time>2026-06-19T22:21:34.214025995Z</time>
      </trkpt>
      <trkpt lat="47.113304" lon="18.977789">
        <ele>92.009</ele>
        <time>2026-06-19T22:21:54.214028600Z</time>
      </trkpt>
      <trkpt lat="47.112962" lon="18.978497">
        <ele>92.074</ele>
        <time>2026-06-19T22:22:14.214031174Z</time>
      </trkpt>
      <trkpt lat="47.112491" lon="18.979660">
        <ele>92.059</ele>
        <time>2026-06-19T22:22:34.214033789Z</time>
      </trkpt>
      <trkpt lat="47.112241" lon="18.980480">
        <ele>92.042</ele>
        <time>2026-06-19T22:22:54.214036434Z</time>
      </trkpt>
      <trkpt lat="47.111961" lon="18.981124">
        <ele>92.074</ele>
        <time>2026-06-19T22:23:14.214039019Z</time>
      </trkpt>
      <trkpt lat="47.111085" lon="18.984534">
        <ele>92.083</ele>
        <time>2026-06-19T22:23:34.214041544Z</time>
      </trkpt>
      <trkpt lat="47.111005" lon="18.985045">
        <ele>92.070</ele>
        <time>2026-06-19T22:23:54.214044159Z</time>
      </trkpt>
      <trkpt lat="47.110907" lon="18.985303">
        <ele>92.066</ele>
        <time>2026-06-19T22:24:14.214046754Z</time>
      </trkpt>
      <trkpt lat="47.110792" lon="18.985405">
        <ele>92.011</ele>
        <time>2026-06-19T22:24:34.214049298Z</time>
      </trkpt>
      <trkpt lat="47.110795" lon="18.985740">
        <ele>92.012</ele>
        <time>2026-06-19T22:24:54.214051873Z</time>
      </trkpt>
      <trkpt lat="47.110562" lon="18.987480">
        <ele>92.012</ele>
        <time>2026-06-19T22:25:14.214054518Z</time>
      </trkpt>
      <trkpt lat="47.110484" lon="18.987857">
        <ele>92.032</ele>
        <time>2026-06-19T22:25:34.214057163Z</time>
      </trkpt>
      <trkpt lat="47.110277" lon="18.988413">
        <ele>92.005</ele>
        <time>2026-06-19T22:25:54.214059788Z</time>
      </trkpt>
      <trkpt lat="47.110091" lon="18.989896">
        <ele>92.009</ele>
        <time>2026-06-19T22:26:14.214062433Z</time>
      </trkpt>
      <trkpt lat="47.109471" lon="18.992905">
        <ele>92.063</ele>
        <time>2026-06-19T22:26:34.214065008Z</time>
      </trkpt>
      <trkpt lat="47.109429" lon="18.992948">
        <ele>92.038</ele>
        <time>2026-06-19T22:26:54.214069306Z</time>
      </trkpt>
      <trkpt lat="47.109383" lon="18.992881">
        <ele>92.031</ele>
        <time>2026-06-19T22:27:14.214074345Z</time>
      </trkpt>
      <trkpt lat="47.109534" lon="18.992443">
        <ele>92.093</ele>
        <time>2026-06-19T22:27:34.214076920Z</time>
      </trkpt>
      <trkpt lat="47.109526" lon="18.992648">
        <ele>92.052</ele>
        <time>2026-06-19T22:27:54.214079495Z</time>
      </trkpt>
      <trkpt lat="47.109411" lon="18.993005">
        <ele>92.019</ele>
        <time>2026-06-19T22:28:14.214082060Z</time>
      </trkpt>
      <trkpt lat="47.108872" lon="18.994226">
        <ele>92.075</ele>
        <time>2026-06-19T22:28:34.214084665Z</time>
      </trkpt>
      <trkpt lat="47.108446" lon="18.995438">
        <ele>92.020</ele>
        <time>2026-06-19T22:28:54.214087209Z</time>
      </trkpt>
      <trkpt lat="47.107668" lon="18.996848">
        <ele>92.061</ele>
        <time>2026-06-19T22:29:14.214089804Z</time>
      </trkpt>
      <trkpt lat="47.107579" lon="18.997336">
        <ele>92.032</ele>
        <time>2026-06-19T22:29:34.214092459Z</time>
      </trkpt>
      <trkpt lat="47.107312" lon="18.997971">
        <ele>92.092</ele>
        <time>2026-06-19T22:29:54.214095064Z</time>
      </trkpt>
      <trkpt lat="47.106969" lon="18.998517">
        <ele>92.011</ele>
        <time>2026-06-19T22:30:14.214097679Z</time>
      </trkpt>
      <trkpt lat="47.106643" lon="18.999179">
        <ele>92.009</ele>
        <time>2026-06-19T22:30:34.214100254Z</time>
      </trkpt>
      <trkpt lat="47.106485" lon="18.999317">
        <ele>92.075</ele>
        <time>2026-06-19T22:30:54.214102839Z</time>
      </trkpt>
      <trkpt lat="47.106178" lon="18.999449">
        <ele>92.080</ele>
        <time>2026-06-19T22:31:14.214105383Z</time>
      </trkpt>
      <trkpt lat="47.106017" lon="18.999699">
        <ele>92.033</ele>
        <time>2026-06-19T22:31:34.214107948Z</time>
      </trkpt>
      <trkpt lat="47.105861" lon="19.000405">
        <ele>92.055</ele>
        <time>2026-06-19T22:31:54.214110493Z</time>
      </trkpt>
      <trkpt lat="47.105529" lon="19.001026">
        <ele>92.094</ele>
        <time>2026-06-19T22:32:14.214113008Z</time>
      </trkpt>
      <trkpt lat="47.105429" lon="19.001381">
        <ele>92.071</ele>
        <time>2026-06-19T22:32:34.214115593Z</time>
      </trkpt>
      <trkpt lat="47.105321" lon="19.002087">
        <ele>98.757</ele>
        <time>2026-06-19T22:32:54.214118197Z</time>
      </trkpt>
      <trkpt lat="47.105360" lon="19.002093">
        <ele>98.532</ele>
        <time>2026-06-19T22:33:14.214120762Z</time>
      </trkpt>
      <trkpt lat="47.105370" lon="19.002175">
        <ele>98.033</ele>
        <time>2026-06-19T22:33:34.214123367Z</time>
      </trkpt>
      <trkpt lat="47.105341" lon="19.002255">
        <ele>97.757</ele>
        <time>2026-06-19T22:33:54.214126002Z</time>
      </trkpt>
      <trkpt lat="47.104966" lon="19.002622">
        <ele>95.200</ele>
        <time>2026-06-19T22:34:14.214128717Z</time>
      </trkpt>
      <trkpt lat="47.104912" lon="19.002932">
        <ele>94.920</ele>
        <time>2026-06-19T22:34:34.214135680Z</time>
      </trkpt>
      <trkpt lat="47.104961" lon="19.002977">
        <ele>95.409</ele>
        <time>2026-06-19T22:34:54.214138315Z</time>
      </trkpt>
      <trkpt lat="47.104922" lon="19.002836">
        <ele>94.647</ele>
        <time>2026-06-19T22:35:14.214140940Z</time>
      </trkpt>
      <trkpt lat="47.104945" lon="19.002648">
        <ele>95.092</ele>
        <time>2026-06-19T22:35:34.214143555Z</time>
      </trkpt>
      <trkpt lat="47.105122" lon="19.002563">
        <ele>96.295</ele>
        <time>2026-06-19T22:35:54.214146150Z</time>
      </trkpt>
      <trkpt lat="47.104950" lon="19.002654">
        <ele>95.047</ele>
        <time>2026-06-19T22:36:14.214148755Z</time>
      </trkpt>
      <trkpt lat="47.104916" lon="19.002837">
        <ele>94.666</ele>
        <time>2026-06-19T22:36:34.214151319Z</time>
      </trkpt>
      <trkpt lat="47.104952" lon="19.002950">
        <ele>95.323</ele>
        <time>2026-06-19T22:36:54.214153934Z</time>
      </trkpt>
      <trkpt lat="47.104926" lon="19.002893">
        <ele>94.999</ele>
        <time>2026-06-19T22:37:14.214156469Z</time>
      </trkpt>
      <trkpt lat="47.104918" lon="19.002947">
        <ele>95.024</ele>
        <time>2026-06-19T22:37:34.214159064Z</time>
      </trkpt>
    </trkseg>
  </trk></gpx>