<?xml version="1.0" encoding="UTF-8"?>
<gpx creator="Wikiloc - https://www.wikiloc.com" version="1.1" xmlns="http://www.topografix.com/GPX/1/1" xmlns:xsi="http://www.w3.org/2001/XMLSchema-instance" xsi:schemaLocation="http://www.topografix.com/GPX/1/1 http://www.topografix.com/GPX/1/1/gpx.xsd">
  <metadata>
    <name>Wikiloc - Tisza-tó - Kis-Tisza</name>
    <author>
      <name>bata béla</name>
      <link href="https://www.wikiloc.com/wikiloc/user.do?id=21938865">
        <text>bata béla on Wikiloc</text>
      </link>
    </author>
    <link href="https://www.wikiloc.com/stand-up-paddle-sup-trails/tisza-to-kis-tisza-270218242">
      <text>Tisza-tó - Kis-Tisza on Wikiloc</text>
    </link>
    <time>2026-06-19T20:56:18.076Z</time>
  </metadata>
  <trk>
    <name>Tisza-tó - Kis-Tisza - Wikiloc</name>
    <cmt>Szőkeszélitanya</cmt>
    <desc>Szőkeszélitanya</desc>
    <trkseg>
      <trkpt lat="47.636521" lon="20.653002">
        <ele>83.025</ele>
        <time>2026-06-19T20:57:00.211446634Z</time>
      </trkpt>
      <trkpt lat="47.636378" lon="20.653055">
        <ele>83.026</ele>
        <time>2026-06-19T20:57:20.211451012Z</time>
      </trkpt>
      <trkpt lat="47.636285" lon="20.653157">
        <ele>83.608</ele>
        <time>2026-06-19T20:57:40.211454468Z</time>
      </trkpt>
      <trkpt lat="47.636233" lon="20.653329">
        <ele>84.009</ele>
        <time>2026-06-19T20:58:00.211457614Z</time>
      </trkpt>
      <trkpt lat="47.636272" lon="20.653704">
        <ele>84.674</ele>
        <time>2026-06-19T20:58:20.211460780Z</time>
      </trkpt>
      <trkpt lat="47.636375" lon="20.653958">
        <ele>84.359</ele>
        <time>2026-06-19T20:58:40.211463535Z</time>
      </trkpt>
      <trkpt lat="47.636360" lon="20.654474">
        <ele>85.292</ele>
        <time>2026-06-19T20:59:00.211466381Z</time>
      </trkpt>
      <trkpt lat="47.636441" lon="20.655046">
        <ele>84.924</ele>
        <time>2026-06-19T20:59:20.211469066Z</time>
      </trkpt>
      <trkpt lat="47.636365" lon="20.655110">
        <ele>84.783</ele>
        <time>2026-06-19T20:59:40.211474185Z</time>
      </trkpt>
      <trkpt lat="47.636304" lon="20.655306">
        <ele>83.930</ele>
        <time>2026-06-19T21:00:00.211477091Z</time>
      </trkpt>
      <trkpt lat="47.635902" lon="20.657006">
        <ele>85.974</ele>
        <time>2026-06-19T21:00:20.211479916Z</time>
      </trkpt>
      <trkpt lat="47.635808" lon="20.658018">
        <ele>87.246</ele>
        <time>2026-06-19T21:00:40.211482621Z</time>
      </trkpt>
      <trkpt lat="47.635889" lon="20.659463">
        <ele>87.014</ele>
        <time>2026-06-19T21:01:00.211485396Z</time>
      </trkpt>
      <trkpt lat="47.635967" lon="20.659809">
        <ele>87.812</ele>
        <time>2026-06-19T21:01:20.211488221Z</time>
      </trkpt>
      <trkpt lat="47.635970" lon="20.660178">
        <ele>88.532</ele>
        <time>2026-06-19T21:01:40.211490977Z</time>
      </trkpt>
      <trkpt lat="47.636136" lon="20.661301">
        <ele>88.005</ele>
        <time>2026-06-19T21:02:00.211493692Z</time>
      </trkpt>
      <trkpt lat="47.636209" lon="20.662685">
        <ele>90.309</ele>
        <time>2026-06-19T21:02:20.211496367Z</time>
      </trkpt>
      <trkpt lat="47.636345" lon="20.663727">
        <ele>88.263</ele>
        <time>2026-06-19T21:02:40.211499162Z</time>
      </trkpt>
      <trkpt lat="47.636373" lon="20.664389">
        <ele>89.098</ele>
        <time>2026-06-19T21:03:00.211501837Z</time>
      </trkpt>
      <trkpt lat="47.636521" lon="20.665557">
        <ele>88.451</ele>
        <time>2026-06-19T21:03:20.214935265Z</time>
      </trkpt>
      <trkpt lat="47.636591" lon="20.665698">
        <ele>88.883</ele>
        <time>2026-06-19T21:03:40.214945725Z</time>
      </trkpt>
      <trkpt lat="47.636781" lon="20.666879">
        <ele>85.722</ele>
        <time>2026-06-19T21:04:00.214948921Z</time>
      </trkpt>
      <trkpt lat="47.636921" lon="20.667956">
        <ele>88.119</ele>
        <time>2026-06-19T21:04:20.214951786Z</time>
      </trkpt>
      <trkpt lat="47.636913" lon="20.668227">
        <ele>86.923</ele>
        <time>2026-06-19T21:04:40.214954611Z</time>
      </trkpt>
      <trkpt lat="47.637008" lon="20.668529">
        <ele>85.535</ele>
        <time>2026-06-19T21:05:00.214957316Z</time>
      </trkpt>
      <trkpt lat="47.636999" lon="20.669849">
        <ele>86.563</ele>
        <time>2026-06-19T21:05:20.214960172Z</time>
      </trkpt>
      <trkpt lat="47.636908" lon="20.670633">
        <ele>85.192</ele>
        <time>2026-06-19T21:05:40.214963779Z</time>
      </trkpt>
      <trkpt lat="47.636937" lon="20.671354">
        <ele>85.973</ele>
        <time>2026-06-19T21:06:00.214967225Z</time>
      </trkpt>
      <trkpt lat="47.636906" lon="20.671608">
        <ele>86.820</ele>
        <time>2026-06-19T21:06:20.214970301Z</time>
      </trkpt>
      <trkpt lat="47.636973" lon="20.672290">
        <ele>87.009</ele>
        <time>2026-06-19T21:06:40.214973567Z</time>
      </trkpt>
      <trkpt lat="47.636932" lon="20.672368">
        <ele>87.031</ele>
        <time>2026-06-19T21:07:00.214976182Z</time>
      </trkpt>
      <trkpt lat="47.637003" lon="20.672609">
        <ele>87.076</ele>
        <time>2026-06-19T21:07:20.214978747Z</time>
      </trkpt>
      <trkpt lat="47.637044" lon="20.673070">
        <ele>87.799</ele>
        <time>2026-06-19T21:07:40.214981382Z</time>
      </trkpt>
      <trkpt lat="47.637180" lon="20.673393">
        <ele>89.491</ele>
        <time>2026-06-19T21:08:00.214983996Z</time>
      </trkpt>
      <trkpt lat="47.637311" lon="20.674164">
        <ele>89.760</ele>
        <time>2026-06-19T21:08:20.214986591Z</time>
      </trkpt>
      <trkpt lat="47.637617" lon="20.675384">
        <ele>88.447</ele>
        <time>2026-06-19T21:08:40.214989126Z</time>
      </trkpt>
      <trkpt lat="47.638006" lon="20.676249">
        <ele>88.371</ele>
        <time>2026-06-19T21:09:00.214991741Z</time>
      </trkpt>
      <trkpt lat="47.638256" lon="20.676633">
        <ele>87.113</ele>
        <time>2026-06-19T21:09:20.214994286Z</time>
      </trkpt>
      <trkpt lat="47.638983" lon="20.678024">
        <ele>89.651</ele>
        <time>2026-06-19T21:09:40.214996861Z</time>
      </trkpt>
      <trkpt lat="47.639368" lon="20.678955">
        <ele>87.959</ele>
        <time>2026-06-19T21:10:00.214999766Z</time>
      </trkpt>
      <trkpt lat="47.639742" lon="20.679685">
        <ele>88.103</ele>
        <time>2026-06-19T21:10:20.215002421Z</time>
      </trkpt>
      <trkpt lat="47.639884" lon="20.680148">
        <ele>87.123</ele>
        <time>2026-06-19T21:10:40.215005016Z</time>
      </trkpt>
      <trkpt lat="47.639912" lon="20.680064">
        <ele>87.209</ele>
        <time>2026-06-19T21:11:00.215007641Z</time>
      </trkpt>
      <trkpt lat="47.639797" lon="20.680038">
        <ele>87.737</ele>
        <time>2026-06-19T21:11:20.215010296Z</time>
      </trkpt>
      <trkpt lat="47.639661" lon="20.680159">
        <ele>88.372</ele>
        <time>2026-06-19T21:11:40.215012830Z</time>
      </trkpt>
      <trkpt lat="47.639438" lon="20.680188">
        <ele>89.785</ele>
        <time>2026-06-19T21:12:00.215015395Z</time>
      </trkpt>
      <trkpt lat="47.639192" lon="20.680321">
        <ele>91.187</ele>
        <time>2026-06-19T21:12:20.215017980Z</time>
      </trkpt>
      <trkpt lat="47.639093" lon="20.680322">
        <ele>91.186</ele>
        <time>2026-06-19T21:12:40.215020525Z</time>
      </trkpt>
      <trkpt lat="47.639030" lon="20.680417">
        <ele>91.353</ele>
        <time>2026-06-19T21:13:00.215023110Z</time>
      </trkpt>
      <trkpt lat="47.638986" lon="20.680389">
        <ele>91.137</ele>
        <time>2026-06-19T21:13:20.215025644Z</time>
      </trkpt>
      <trkpt lat="47.638778" lon="20.680559">
        <ele>90.219</ele>
        <time>2026-06-19T21:13:40.215028189Z</time>
      </trkpt>
      <trkpt lat="47.638550" lon="20.680576">
        <ele>88.777</ele>
        <time>2026-06-19T21:14:00.215030804Z</time>
      </trkpt>
      <trkpt lat="47.638191" lon="20.680827">
        <ele>86.521</ele>
        <time>2026-06-19T21:14:20.215056362Z</time>
      </trkpt>
      <trkpt lat="47.638061" lon="20.680819">
        <ele>86.041</ele>
        <time>2026-06-19T21:14:40.215059808Z</time>
      </trkpt>
      <trkpt lat="47.638026" lon="20.681069">
        <ele>86.005</ele>
        <time>2026-06-19T21:15:00.215062614Z</time>
      </trkpt>
      <trkpt lat="47.637835" lon="20.681357">
        <ele>85.309</ele>
        <time>2026-06-19T21:15:20.215065339Z</time>
      </trkpt>
      <trkpt lat="47.638053" lon="20.680976">
        <ele>86.094</ele>
        <time>2026-06-19T21:15:40.215068114Z</time>
      </trkpt>
      <trkpt lat="47.638086" lon="20.680821">
        <ele>86.199</ele>
        <time>2026-06-19T21:16:00.215070779Z</time>
      </trkpt>
      <trkpt lat="47.638384" lon="20.680726">
        <ele>87.692</ele>
        <time>2026-06-19T21:16:20.215073444Z</time>
      </trkpt>
      <trkpt lat="47.638456" lon="20.680633">
        <ele>88.234</ele>
        <time>2026-06-19T21:16:40.215076199Z</time>
      </trkpt>
      <trkpt lat="47.639367" lon="20.680213">
        <ele>90.123</ele>
        <time>2026-06-19T21:17:00.215078844Z</time>
      </trkpt>
      <trkpt lat="47.639723" lon="20.680123">
        <ele>88.040</ele>
        <time>2026-06-19T21:17:20.215081549Z</time>
      </trkpt>
      <trkpt lat="47.639807" lon="20.679981">
        <ele>87.794</ele>
        <time>2026-06-19T21:17:40.215084244Z</time>
      </trkpt>
      <trkpt lat="47.639889" lon="20.680000">
        <ele>87.476</ele>
        <time>2026-06-19T21:18:00.215086979Z</time>
      </trkpt>
      <trkpt lat="47.640186" lon="20.680756">
        <ele>86.774</ele>
        <time>2026-06-19T21:18:20.215089664Z</time>
      </trkpt>
      <trkpt lat="47.640454" lon="20.681783">
        <ele>88.031</ele>
        <time>2026-06-19T21:18:40.215092490Z</time>
      </trkpt>
      <trkpt lat="47.640585" lon="20.683125">
        <ele>88.161</ele>
        <time>2026-06-19T21:19:00.215095375Z</time>
      </trkpt>
      <trkpt lat="47.640597" lon="20.683875">
        <ele>88.007</ele>
        <time>2026-06-19T21:19:20.215098030Z</time>
      </trkpt>
      <trkpt lat="47.640366" lon="20.685982">
        <ele>89.009</ele>
        <time>2026-06-19T21:19:40.215100735Z</time>
      </trkpt>
      <trkpt lat="47.640285" lon="20.686071">
        <ele>89.075</ele>
        <time>2026-06-19T21:20:00.215103460Z</time>
      </trkpt>
      <trkpt lat="47.640251" lon="20.686567">
        <ele>89.210</ele>
        <time>2026-06-19T21:20:20.215106165Z</time>
      </trkpt>
      <trkpt lat="47.639945" lon="20.687568">
        <ele>90.323</ele>
        <time>2026-06-19T21:20:40.215108900Z</time>
      </trkpt>
      <trkpt lat="47.639871" lon="20.687952">
        <ele>89.865</ele>
        <time>2026-06-19T21:21:00.215111635Z</time>
      </trkpt>
      <trkpt lat="47.639559" lon="20.688756">
        <ele>88.494</ele>
        <time>2026-06-19T21:21:20.215114300Z</time>
      </trkpt>
      <trkpt lat="47.639451" lon="20.689371">
        <ele>87.381</ele>
        <time>2026-06-19T21:21:40.215118338Z</time>
      </trkpt>
      <trkpt lat="47.639183" lon="20.690135">
        <ele>89.935</ele>
        <time>2026-06-19T21:22:00.215121544Z</time>
      </trkpt>
      <trkpt lat="47.638344" lon="20.691916">
        <ele>90.017</ele>
        <time>2026-06-19T21:22:20.215124389Z</time>
      </trkpt>
      <trkpt lat="47.637869" lon="20.693517">
        <ele>89.725</ele>
        <time>2026-06-19T21:22:40.215127185Z</time>
      </trkpt>
      <trkpt lat="47.637772" lon="20.694345">
        <ele>88.417</ele>
        <time>2026-06-19T21:23:00.215129809Z</time>
      </trkpt>
      <trkpt lat="47.637827" lon="20.694669">
        <ele>87.887</ele>
        <time>2026-06-19T21:23:20.215132414Z</time>
      </trkpt>
      <trkpt lat="47.637902" lon="20.694792">
        <ele>87.415</ele>
        <time>2026-06-19T21:23:40.215134999Z</time>
      </trkpt>
      <trkpt lat="47.637957" lon="20.695641">
        <ele>86.809</ele>
        <time>2026-06-19T21:24:00.215137654Z</time>
      </trkpt>
      <trkpt lat="47.637864" lon="20.696481">
        <ele>88.563</ele>
        <time>2026-06-19T21:24:20.215140209Z</time>
      </trkpt>
      <trkpt lat="47.637627" lon="20.696430">
        <ele>89.588</ele>
        <time>2026-06-19T21:24:40.215142814Z</time>
      </trkpt>
      <trkpt lat="47.637499" lon="20.696566">
        <ele>89.471</ele>
        <time>2026-06-19T21:25:00.215145379Z</time>
      </trkpt>
      <trkpt lat="47.637300" lon="20.696524">
        <ele>88.473</ele>
        <time>2026-06-19T21:25:20.215147983Z</time>
      </trkpt>
      <trkpt lat="47.637030" lon="20.696555">
        <ele>88.042</ele>
        <time>2026-06-19T21:25:40.215150578Z</time>
      </trkpt>
      <trkpt lat="47.636851" lon="20.696639">
        <ele>88.089</ele>
        <time>2026-06-19T21:26:00.215153113Z</time>
      </trkpt>
      <trkpt lat="47.636759" lon="20.696611">
        <ele>88.173</ele>
        <time>2026-06-19T21:26:20.215155678Z</time>
      </trkpt>
      <trkpt lat="47.636580" lon="20.696656">
        <ele>88.195</ele>
        <time>2026-06-19T21:26:40.215158263Z</time>
      </trkpt>
      <trkpt lat="47.636246" lon="20.696922">
        <ele>89.163</ele>
        <time>2026-06-19T21:27:00.215160807Z</time>
      </trkpt>
      <trkpt lat="47.636195" lon="20.696833">
        <ele>89.723</ele>
        <time>2026-06-19T21:27:20.215163462Z</time>
      </trkpt>
      <trkpt lat="47.636215" lon="20.696803">
        <ele>89.683</ele>
        <time>2026-06-19T21:27:40.215166027Z</time>
      </trkpt>
      <trkpt lat="47.636253" lon="20.696858">
        <ele>89.111</ele>
        <time>2026-06-19T21:28:00.215168592Z</time>
      </trkpt>
      <trkpt lat="47.636365" lon="20.696873">
        <ele>88.209</ele>
        <time>2026-06-19T21:28:20.215171137Z</time>
      </trkpt>
      <trkpt lat="47.636597" lon="20.696712">
        <ele>88.014</ele>
        <time>2026-06-19T21:28:40.215173652Z</time>
      </trkpt>
      <trkpt lat="47.636778" lon="20.696653">
        <ele>88.019</ele>
        <time>2026-06-19T21:29:00.215178801Z</time>
      </trkpt>
      <trkpt lat="47.636885" lon="20.696687">
        <ele>88.062</ele>
        <time>2026-06-19T21:29:20.215181326Z</time>
      </trkpt>
      <trkpt lat="47.637107" lon="20.696592">
        <ele>88.054</ele>
        <time>2026-06-19T21:29:40.215183881Z</time>
      </trkpt>
      <trkpt lat="47.637221" lon="20.696615">
        <ele>88.063</ele>
        <time>2026-06-19T21:30:00.215186415Z</time>
      </trkpt>
      <trkpt lat="47.637326" lon="20.696572">
        <ele>88.580</ele>
        <time>2026-06-19T21:30:20.215188970Z</time>
      </trkpt>
      <trkpt lat="47.637415" lon="20.696695">
        <ele>88.754</ele>
        <time>2026-06-19T21:30:40.215191555Z</time>
      </trkpt>
      <trkpt lat="47.637640" lon="20.696441">
        <ele>89.426</ele>
        <time>2026-06-19T21:31:00.215194120Z</time>
      </trkpt>
      <trkpt lat="47.637783" lon="20.696455">
        <ele>89.074</ele>
        <time>2026-06-19T21:31:20.215196675Z</time>
      </trkpt>
      <trkpt lat="47.637880" lon="20.696616">
        <ele>88.667</ele>
        <time>2026-06-19T21:31:40.215199340Z</time>
      </trkpt>
      <trkpt lat="47.637714" lon="20.697391">
        <ele>87.581</ele>
        <time>2026-06-19T21:32:00.215201944Z</time>
      </trkpt>
      <trkpt lat="47.637785" lon="20.697980">
        <ele>85.919</ele>
        <time>2026-06-19T21:32:20.215204539Z</time>
      </trkpt>
      <trkpt lat="47.637751" lon="20.698406">
        <ele>85.509</ele>
        <time>2026-06-19T21:32:40.215207074Z</time>
      </trkpt>
      <trkpt lat="47.638077" lon="20.699752">
        <ele>88.028</ele>
        <time>2026-06-19T21:33:00.215209649Z</time>
      </trkpt>
      <trkpt lat="47.638132" lon="20.699580">
        <ele>88.093</ele>
        <time>2026-06-19T21:33:20.215212184Z</time>
      </trkpt>
      <trkpt lat="47.638261" lon="20.699592">
        <ele>88.096</ele>
        <time>2026-06-19T21:33:40.215214738Z</time>
      </trkpt>
      <trkpt lat="47.638448" lon="20.699706">
        <ele>88.438</ele>
        <time>2026-06-19T21:34:00.215223655Z</time>
      </trkpt>
      <trkpt lat="47.638573" lon="20.699846">
        <ele>88.987</ele>
        <time>2026-06-19T21:34:20.215226370Z</time>
      </trkpt>
      <trkpt lat="47.638864" lon="20.699982">
        <ele>89.074</ele>
        <time>2026-06-19T21:34:40.215228925Z</time>
      </trkpt>
      <trkpt lat="47.639030" lon="20.700195">
        <ele>89.758</ele>
        <time>2026-06-19T21:35:00.215231570Z</time>
      </trkpt>
      <trkpt lat="47.640141" lon="20.700835">
        <ele>91.040</ele>
        <time>2026-06-19T21:35:20.215234145Z</time>
      </trkpt>
      <trkpt lat="47.640463" lon="20.700966">
        <ele>92.228</ele>
        <time>2026-06-19T21:35:40.215236690Z</time>
      </trkpt>
      <trkpt lat="47.640719" lon="20.701211">
        <ele>92.467</ele>
        <time>2026-06-19T21:36:00.215239324Z</time>
      </trkpt>
      <trkpt lat="47.641416" lon="20.701557">
        <ele>90.081</ele>
        <time>2026-06-19T21:36:20.215242250Z</time>
      </trkpt>
      <trkpt lat="47.641985" lon="20.702203">
        <ele>90.919</ele>
        <time>2026-06-19T21:36:40.215244775Z</time>
      </trkpt>
      <trkpt lat="47.642444" lon="20.702864">
        <ele>89.709</ele>
        <time>2026-06-19T21:37:00.215247309Z</time>
      </trkpt>
      <trkpt lat="47.642596" lon="20.703163">
        <ele>90.048</ele>
        <time>2026-06-19T21:37:20.215249884Z</time>
      </trkpt>
      <trkpt lat="47.642767" lon="20.703351">
        <ele>90.263</ele>
        <time>2026-06-19T21:37:40.215252399Z</time>
      </trkpt>
      <trkpt lat="47.642998" lon="20.703805">
        <ele>91.126</ele>
        <time>2026-06-19T21:38:00.215254974Z</time>
      </trkpt>
      <trkpt lat="47.643089" lon="20.704426">
        <ele>89.818</ele>
        <time>2026-06-19T21:38:20.215257498Z</time>
      </trkpt>
      <trkpt lat="47.643131" lon="20.705302">
        <ele>89.117</ele>
        <time>2026-06-19T21:38:40.215260093Z</time>
      </trkpt>
      <trkpt lat="47.643273" lon="20.706024">
        <ele>89.934</ele>
        <time>2026-06-19T21:39:00.215262638Z</time>
      </trkpt>
      <trkpt lat="47.643432" lon="20.706357">
        <ele>90.018</ele>
        <time>2026-06-19T21:39:20.215265183Z</time>
      </trkpt>
      <trkpt lat="47.643440" lon="20.706687">
        <ele>90.460</ele>
        <time>2026-06-19T21:39:40.215267848Z</time>
      </trkpt>
      <trkpt lat="47.643618" lon="20.707267">
        <ele>91.078</ele>
        <time>2026-06-19T21:40:00.215270393Z</time>
      </trkpt>
      <trkpt lat="47.643692" lon="20.707687">
        <ele>90.521</ele>
        <time>2026-06-19T21:40:20.215273138Z</time>
      </trkpt>
      <trkpt lat="47.643848" lon="20.707855">
        <ele>91.041</ele>
        <time>2026-06-19T21:40:40.215275753Z</time>
      </trkpt>
      <trkpt lat="47.644090" lon="20.708613">
        <ele>93.405</ele>
        <time>2026-06-19T21:41:00.215278317Z</time>
      </trkpt>
      <trkpt lat="47.644263" lon="20.708778">
        <ele>93.309</ele>
        <time>2026-06-19T21:41:20.215280872Z</time>
      </trkpt>
      <trkpt lat="47.644479" lon="20.709258">
        <ele>91.814</ele>
        <time>2026-06-19T21:41:40.215283567Z</time>
      </trkpt>
      <trkpt lat="47.644551" lon="20.709541">
        <ele>91.419</ele>
        <time>2026-06-19T21:42:00.215286122Z</time>
      </trkpt>
      <trkpt lat="47.644733" lon="20.711213">
        <ele>89.962</ele>
        <time>2026-06-19T21:42:20.215288697Z</time>
      </trkpt>
      <trkpt lat="47.644703" lon="20.711507">
        <ele>90.574</ele>
        <time>2026-06-19T21:42:40.215291272Z</time>
      </trkpt>
      <trkpt lat="47.644783" lon="20.712191">
        <ele>92.563</ele>
        <time>2026-06-19T21:43:00.215293816Z</time>
      </trkpt>
      <trkpt lat="47.644872" lon="20.712425">
        <ele>91.970</ele>
        <time>2026-06-19T21:43:20.215296351Z</time>
      </trkpt>
      <trkpt lat="47.644858" lon="20.712840">
        <ele>91.554</ele>
        <time>2026-06-19T21:43:40.215298996Z</time>
      </trkpt>
      <trkpt lat="47.644941" lon="20.713080">
        <ele>91.256</ele>
        <time>2026-06-19T21:44:00.215301541Z</time>
      </trkpt>
      <trkpt lat="47.645036" lon="20.713160">
        <ele>90.884</ele>
        <time>2026-06-19T21:44:20.215304116Z</time>
      </trkpt>
      <trkpt lat="47.645177" lon="20.713202">
        <ele>90.191</ele>
        <time>2026-06-19T21:44:40.215306751Z</time>
      </trkpt>
      <trkpt lat="47.645388" lon="20.713180">
        <ele>89.481</ele>
        <time>2026-06-19T21:45:00.215309426Z</time>
      </trkpt>
      <trkpt lat="47.645743" lon="20.713318">
        <ele>89.919</ele>
        <time>2026-06-19T21:45:20.215312111Z</time>
      </trkpt>
      <trkpt lat="47.645922" lon="20.713620">
        <ele>90.709</ele>
        <time>2026-06-19T21:45:40.215314786Z</time>
      </trkpt>
      <trkpt lat="47.646049" lon="20.714203">
        <ele>89.361</ele>
        <time>2026-06-19T21:46:00.215317481Z</time>
      </trkpt>
      <trkpt lat="47.646053" lon="20.714506">
        <ele>88.216</ele>
        <time>2026-06-19T21:46:20.215320096Z</time>
      </trkpt>
      <trkpt lat="47.646198" lon="20.715363">
        <ele>88.359</ele>
        <time>2026-06-19T21:46:40.215322721Z</time>
      </trkpt>
      <trkpt lat="47.646178" lon="20.715598">
        <ele>89.011</ele>
        <time>2026-06-19T21:47:00.215325295Z</time>
      </trkpt>
      <trkpt lat="47.646246" lon="20.716144">
        <ele>89.010</ele>
        <time>2026-06-19T21:47:20.215327890Z</time>
      </trkpt>
      <trkpt lat="47.646118" lon="20.717742">
        <ele>87.947</ele>
        <time>2026-06-19T21:47:40.215330455Z</time>
      </trkpt>
      <trkpt lat="47.646015" lon="20.717958">
        <ele>87.751</ele>
        <time>2026-06-19T21:48:00.215333010Z</time>
      </trkpt>
      <trkpt lat="47.646003" lon="20.718091">
        <ele>87.673</ele>
        <time>2026-06-19T21:48:20.215335665Z</time>
      </trkpt>
      <trkpt lat="47.646053" lon="20.718203">
        <ele>87.831</ele>
        <time>2026-06-19T21:48:40.215338290Z</time>
      </trkpt>
      <trkpt lat="47.645982" lon="20.718390">
        <ele>87.665</ele>
        <time>2026-06-19T21:49:00.215340975Z</time>
      </trkpt>
      <trkpt lat="47.646031" lon="20.718250">
        <ele>87.768</ele>
        <time>2026-06-19T21:49:20.215343620Z</time>
      </trkpt>
      <trkpt lat="47.646111" lon="20.718188">
        <ele>88.014</ele>
        <time>2026-06-19T21:49:40.215346275Z</time>
      </trkpt>
      <trkpt lat="47.646125" lon="20.718226">
        <ele>88.109</ele>
        <time>2026-06-19T21:50:00.215348930Z</time>
      </trkpt>
      <trkpt lat="47.646056" lon="20.718082">
        <ele>87.878</ele>
        <time>2026-06-19T21:50:20.215351525Z</time>
      </trkpt>
      <trkpt lat="47.646128" lon="20.717580">
        <ele>87.323</ele>
        <time>2026-06-19T21:50:40.215354109Z</time>
      </trkpt>
      <trkpt lat="47.646104" lon="20.717095">
        <ele>87.086</ele>
        <time>2026-06-19T21:51:00.215356664Z</time>
      </trkpt>
      <trkpt lat="47.646211" lon="20.716536">
        <ele>88.578</ele>
        <time>2026-06-19T21:51:20.215359319Z</time>
      </trkpt>
      <trkpt lat="47.646140" lon="20.715551">
        <ele>89.067</ele>
        <time>2026-06-19T21:51:40.215361944Z</time>
      </trkpt>
      <trkpt lat="47.646160" lon="20.715285">
        <ele>88.084</ele>
        <time>2026-06-19T21:52:00.215364479Z</time>
      </trkpt>
      <trkpt lat="47.646017" lon="20.714457">
        <ele>88.698</ele>
        <time>2026-06-19T21:52:20.215367024Z</time>
      </trkpt>
      <trkpt lat="47.646000" lon="20.713950">
        <ele>90.310</ele>
        <time>2026-06-19T21:52:40.215369668Z</time>
      </trkpt>
      <trkpt lat="47.645894" lon="20.713481">
        <ele>90.498</ele>
        <time>2026-06-19T21:53:00.215372253Z</time>
      </trkpt>
      <trkpt lat="47.645751" lon="20.713229">
        <ele>89.616</ele>
        <time>2026-06-19T21:53:20.215374938Z</time>
      </trkpt>
      <trkpt lat="47.645306" lon="20.713118">
        <ele>89.276</ele>
        <time>2026-06-19T21:53:40.215382963Z</time>
      </trkpt>
      <trkpt lat="47.645108" lon="20.713130">
        <ele>90.313</ele>
        <time>2026-06-19T21:54:00.215385688Z</time>
      </trkpt>
      <trkpt lat="47.645002" lon="20.713059">
        <ele>91.009</ele>
        <time>2026-06-19T21:54:20.215388293Z</time>
      </trkpt>
      <trkpt lat="47.644914" lon="20.712829">
        <ele>91.053</ele>
        <time>2026-06-19T21:54:40.215390888Z</time>
      </trkpt>
      <trkpt lat="47.644800" lon="20.712187">
        <ele>92.328</ele>
        <time>2026-06-19T21:55:00.215393493Z</time>
      </trkpt>
      <trkpt lat="47.644716" lon="20.712056">
        <ele>92.431</ele>
        <time>2026-06-19T21:55:20.215396058Z</time>
      </trkpt>
      <trkpt lat="47.644776" lon="20.711864">
        <ele>91.393</ele>
        <time>2026-06-19T21:55:40.215398653Z</time>
      </trkpt>
      <trkpt lat="47.644701" lon="20.711397">
        <ele>90.112</ele>
        <time>2026-06-19T21:56:00.215401188Z</time>
      </trkpt>
      <trkpt lat="47.644724" lon="20.711137">
        <ele>90.049</ele>
        <time>2026-06-19T21:56:20.215404193Z</time>
      </trkpt>
      <trkpt lat="47.644628" lon="20.710772">
        <ele>90.933</ele>
        <time>2026-06-19T21:56:40.215406788Z</time>
      </trkpt>
      <trkpt lat="47.644613" lon="20.710091">
        <ele>91.925</ele>
        <time>2026-06-19T21:57:00.215409483Z</time>
      </trkpt>
      <trkpt lat="47.644452" lon="20.709318">
        <ele>91.913</ele>
        <time>2026-06-19T21:57:20.215412068Z</time>
      </trkpt>
      <trkpt lat="47.644215" lon="20.708820">
        <ele>93.717</ele>
        <time>2026-06-19T21:57:40.215414753Z</time>
      </trkpt>
      <trkpt lat="47.644028" lon="20.708567">
        <ele>92.987</ele>
        <time>2026-06-19T21:58:00.215417358Z</time>
      </trkpt>
      <trkpt lat="47.643868" lon="20.707956">
        <ele>91.515</ele>
        <time>2026-06-19T21:58:20.215419913Z</time>
      </trkpt>
      <trkpt lat="47.643641" lon="20.707472">
        <ele>91.009</ele>
        <time>2026-06-19T21:58:40.215422457Z</time>
      </trkpt>
      <trkpt lat="47.643525" lon="20.707100">
        <ele>90.723</ele>
        <time>2026-06-19T21:59:00.215425052Z</time>
      </trkpt>
      <trkpt lat="47.643373" lon="20.706264">
        <ele>90.018</ele>
        <time>2026-06-19T21:59:20.215427567Z</time>
      </trkpt>
      <trkpt lat="47.643215" lon="20.705811">
        <ele>90.061</ele>
        <time>2026-06-19T21:59:40.215430082Z</time>
      </trkpt>
      <trkpt lat="47.643106" lon="20.705257">
        <ele>89.013</ele>
        <time>2026-06-19T22:00:00.215432606Z</time>
      </trkpt>
      <trkpt lat="47.643100" lon="20.704809">
        <ele>89.422</ele>
        <time>2026-06-19T22:00:20.215435221Z</time>
      </trkpt>
      <trkpt lat="47.642993" lon="20.703973">
        <ele>91.589</ele>
        <time>2026-06-19T22:00:40.215437826Z</time>
      </trkpt>
      <trkpt lat="47.642836" lon="20.703559">
        <ele>91.373</ele>
        <time>2026-06-19T22:01:00.215440441Z</time>
      </trkpt>
      <trkpt lat="47.642523" lon="20.703139">
        <ele>90.245</ele>
        <time>2026-06-19T22:01:20.215442996Z</time>
      </trkpt>
      <trkpt lat="47.642443" lon="20.702883">
        <ele>89.823</ele>
        <time>2026-06-19T22:01:40.215445551Z</time>
      </trkpt>
      <trkpt lat="47.642174" lon="20.702453">
        <ele>90.956</ele>
        <time>2026-06-19T22:02:00.215448175Z</time>
      </trkpt>
      <trkpt lat="47.641771" lon="20.701962">
        <ele>90.459</ele>
        <time>2026-06-19T22:02:20.215450730Z</time>
      </trkpt>
      <trkpt lat="47.641250" lon="20.701483">
        <ele>90.814</ele>
        <time>2026-06-19T22:02:40.215453365Z</time>
      </trkpt>
      <trkpt lat="47.640944" lon="20.701294">
        <ele>92.209</ele>
        <time>2026-06-19T22:03:00.215456Z</time>
      </trkpt>
      <trkpt lat="47.640509" lon="20.701116">
        <ele>91.837</ele>
        <time>2026-06-19T22:03:20.215458575Z</time>
      </trkpt>
      <trkpt lat="47.640279" lon="20.700872">
        <ele>91.982</ele>
        <time>2026-06-19T22:03:40.215461120Z</time>
      </trkpt>
      <trkpt lat="47.639857" lon="20.700714">
        <ele>89.095</ele>
        <time>2026-06-19T22:04:00.215463654Z</time>
      </trkpt>
      <trkpt lat="47.639004" lon="20.700182">
        <ele>89.727</ele>
        <time>2026-06-19T22:04:20.215466159Z</time>
      </trkpt>
      <trkpt lat="47.638887" lon="20.700151">
        <ele>89.586</ele>
        <time>2026-06-19T22:04:40.215468674Z</time>
      </trkpt>
      <trkpt lat="47.638557" lon="20.699836">
        <ele>88.973</ele>
        <time>2026-06-19T22:05:00.215471209Z</time>
      </trkpt>
      <trkpt lat="47.638107" lon="20.699511">
        <ele>88.017</ele>
        <time>2026-06-19T22:05:20.215473753Z</time>
      </trkpt>
      <trkpt lat="47.637912" lon="20.699135">
        <ele>86.959</ele>
        <time>2026-06-19T22:05:40.215476348Z</time>
      </trkpt>
      <trkpt lat="47.637701" lon="20.698309">
        <ele>85.997</ele>
        <time>2026-06-19T22:06:00.215478943Z</time>
      </trkpt>
      <trkpt lat="47.637690" lon="20.698363">
        <ele>86.083</ele>
        <time>2026-06-19T22:06:20.215481578Z</time>
      </trkpt>
      <trkpt lat="47.637735" lon="20.698459">
        <ele>85.825</ele>
        <time>2026-06-19T22:06:40.215484253Z</time>
      </trkpt>
      <trkpt lat="47.637786" lon="20.698463">
        <ele>85.417</ele>
        <time>2026-06-19T22:07:00.215486828Z</time>
      </trkpt>
      <trkpt lat="47.637961" lon="20.698378">
        <ele>84.509</ele>
        <time>2026-06-19T22:07:20.215489413Z</time>
      </trkpt>
      <trkpt lat="47.638070" lon="20.698379">
        <ele>84.220</ele>
        <time>2026-06-19T22:07:40.215492008Z</time>
      </trkpt>
      <trkpt lat="47.638237" lon="20.698268">
        <ele>84.265</ele>
        <time>2026-06-19T22:08:00.215494582Z</time>
      </trkpt>
      <trkpt lat="47.637808" lon="20.698433">
        <ele>85.338</ele>
        <time>2026-06-19T22:08:20.215497127Z</time>
      </trkpt>
      <trkpt lat="47.637752" lon="20.698381">
        <ele>85.430</ele>
        <time>2026-06-19T22:08:40.215499682Z</time>
      </trkpt>
      <trkpt lat="47.637695" lon="20.698048">
        <ele>86.659</ele>
        <time>2026-06-19T22:09:00.215502257Z</time>
      </trkpt>
      <trkpt lat="47.637722" lon="20.697017">
        <ele>88.636</ele>
        <time>2026-06-19T22:09:20.215504842Z</time>
      </trkpt>
      <trkpt lat="47.637899" lon="20.695762">
        <ele>87.550</ele>
        <time>2026-06-19T22:09:40.215507416Z</time>
      </trkpt>
      <trkpt lat="47.637875" lon="20.695291">
        <ele>86.732</ele>
        <time>2026-06-19T22:10:00.215509981Z</time>
      </trkpt>
      <trkpt lat="47.637773" lon="20.694954">
        <ele>88.010</ele>
        <time>2026-06-19T22:10:20.215512556Z</time>
      </trkpt>
      <trkpt lat="47.637721" lon="20.694330">
        <ele>88.589</ele>
        <time>2026-06-19T22:10:40.215515241Z</time>
      </trkpt>
      <trkpt lat="47.637770" lon="20.693859">
        <ele>90.006</ele>
        <time>2026-06-19T22:11:00.215517836Z</time>
      </trkpt>
      <trkpt lat="47.638286" lon="20.692013">
        <ele>90.226</ele>
        <time>2026-06-19T22:11:20.215520431Z</time>
      </trkpt>
      <trkpt lat="47.638655" lon="20.691126">
        <ele>88.009</ele>
        <time>2026-06-19T22:11:40.215523026Z</time>
      </trkpt>
      <trkpt lat="47.639123" lon="20.690209">
        <ele>90.430</ele>
        <time>2026-06-19T22:12:00.215525570Z</time>
      </trkpt>
      <trkpt lat="47.639508" lon="20.688870">
        <ele>88.615</ele>
        <time>2026-06-19T22:12:20.215528135Z</time>
      </trkpt>
      <trkpt lat="47.639803" lon="20.688046">
        <ele>89.758</ele>
        <time>2026-06-19T22:12:40.215530700Z</time>
      </trkpt>
      <trkpt lat="47.640309" lon="20.686176">
        <ele>89.070</ele>
        <time>2026-06-19T22:13:00.215533255Z</time>
      </trkpt>
      <trkpt lat="47.640556" lon="20.684018">
        <ele>87.539</ele>
        <time>2026-06-19T22:13:20.215541370Z</time>
      </trkpt>
      <trkpt lat="47.640558" lon="20.683330">
        <ele>89.096</ele>
        <time>2026-06-19T22:13:40.215544035Z</time>
      </trkpt>
      <trkpt lat="47.640494" lon="20.682711">
        <ele>87.450</ele>
        <time>2026-06-19T22:14:00.215546640Z</time>
      </trkpt>
      <trkpt lat="47.640534" lon="20.682405">
        <ele>87.192</ele>
        <time>2026-06-19T22:14:20.215549235Z</time>
      </trkpt>
      <trkpt lat="47.640418" lon="20.681634">
        <ele>88.020</ele>
        <time>2026-06-19T22:14:40.215551830Z</time>
      </trkpt>
      <trkpt lat="47.640145" lon="20.680553">
        <ele>86.528</ele>
        <time>2026-06-19T22:15:00.215554464Z</time>
      </trkpt>
      <trkpt lat="47.639697" lon="20.679563">
        <ele>88.689</ele>
        <time>2026-06-19T22:15:20.215557019Z</time>
      </trkpt>
      <trkpt lat="47.639518" lon="20.679310">
        <ele>88.817</ele>
        <time>2026-06-19T22:15:40.215559584Z</time>
      </trkpt>
      <trkpt lat="47.639265" lon="20.678614">
        <ele>89.009</ele>
        <time>2026-06-19T22:16:00.215562129Z</time>
      </trkpt>
      <trkpt lat="47.639078" lon="20.678319">
        <ele>89.334</ele>
        <time>2026-06-19T22:16:20.215564674Z</time>
      </trkpt>
      <trkpt lat="47.638965" lon="20.677985">
        <ele>89.589</ele>
        <time>2026-06-19T22:16:40.215567178Z</time>
      </trkpt>
      <trkpt lat="47.638958" lon="20.677850">
        <ele>89.292</ele>
        <time>2026-06-19T22:17:00.215569713Z</time>
      </trkpt>
      <trkpt lat="47.639018" lon="20.677690">
        <ele>89.034</ele>
        <time>2026-06-19T22:17:20.215572278Z</time>
      </trkpt>
      <trkpt lat="47.639494" lon="20.677223">
        <ele>87.233</ele>
        <time>2026-06-19T22:17:40.215574853Z</time>
      </trkpt>
      <trkpt lat="47.639399" lon="20.677225">
        <ele>87.330</ele>
        <time>2026-06-19T22:18:00.215577387Z</time>
      </trkpt>
      <trkpt lat="47.639301" lon="20.677416">
        <ele>88.454</ele>
        <time>2026-06-19T22:18:20.215579962Z</time>
      </trkpt>
      <trkpt lat="47.639006" lon="20.677703">
        <ele>89.056</ele>
        <time>2026-06-19T22:18:40.215582537Z</time>
      </trkpt>
      <trkpt lat="47.638831" lon="20.677747">
        <ele>88.844</ele>
        <time>2026-06-19T22:19:00.215585092Z</time>
      </trkpt>
      <trkpt lat="47.638727" lon="20.677638">
        <ele>88.143</ele>
        <time>2026-06-19T22:19:20.215587727Z</time>
      </trkpt>
      <trkpt lat="47.638573" lon="20.677183">
        <ele>87.064</ele>
        <time>2026-06-19T22:19:40.215590352Z</time>
      </trkpt>
      <trkpt lat="47.637770" lon="20.675805">
        <ele>89.010</ele>
        <time>2026-06-19T22:20:00.215593007Z</time>
      </trkpt>
      <trkpt lat="47.637199" lon="20.673478">
        <ele>89.609</ele>
        <time>2026-06-19T22:20:20.215595561Z</time>
      </trkpt>
      <trkpt lat="47.636929" lon="20.671754">
        <ele>87.076</ele>
        <time>2026-06-19T22:20:40.215598066Z</time>
      </trkpt>
      <trkpt lat="47.636925" lon="20.670973">
        <ele>85.031</ele>
        <time>2026-06-19T22:21:00.215600651Z</time>
      </trkpt>
      <trkpt lat="47.637061" lon="20.669727">
        <ele>86.084</ele>
        <time>2026-06-19T22:21:20.215603156Z</time>
      </trkpt>
      <trkpt lat="47.637062" lon="20.669161">
        <ele>85.066</ele>
        <time>2026-06-19T22:21:40.215605720Z</time>
      </trkpt>
      <trkpt lat="47.636749" lon="20.666852">
        <ele>85.895</ele>
        <time>2026-06-19T22:22:00.215608295Z</time>
      </trkpt>
      <trkpt lat="47.636725" lon="20.666156">
        <ele>88.542</ele>
        <time>2026-06-19T22:22:20.215610870Z</time>
      </trkpt>
      <trkpt lat="47.636578" lon="20.665516">
        <ele>88.916</ele>
        <time>2026-06-19T22:22:40.215613455Z</time>
      </trkpt>
      <trkpt lat="47.636422" lon="20.664092">
        <ele>88.538</ele>
        <time>2026-06-19T22:23:00.215615990Z</time>
      </trkpt>
      <trkpt lat="47.636189" lon="20.662556">
        <ele>89.956</ele>
        <time>2026-06-19T22:23:20.215618554Z</time>
      </trkpt>
      <trkpt lat="47.636158" lon="20.661602">
        <ele>88.057</ele>
        <time>2026-06-19T22:23:40.215621219Z</time>
      </trkpt>
      <trkpt lat="47.636043" lon="20.661022">
        <ele>88.200</ele>
        <time>2026-06-19T22:24:00.215623904Z</time>
      </trkpt>
      <trkpt lat="47.635971" lon="20.660076">
        <ele>88.520</ele>
        <time>2026-06-19T22:24:20.215626509Z</time>
      </trkpt>
      <trkpt lat="47.635895" lon="20.659756">
        <ele>87.309</ele>
        <time>2026-06-19T22:24:40.215629144Z</time>
      </trkpt>
      <trkpt lat="47.635843" lon="20.658172">
        <ele>87.067</ele>
        <time>2026-06-19T22:25:00.215631719Z</time>
      </trkpt>
      <trkpt lat="47.635923" lon="20.657061">
        <ele>86.052</ele>
        <time>2026-06-19T22:25:20.215634264Z</time>
      </trkpt>
      <trkpt lat="47.636087" lon="20.656253">
        <ele>85.295</ele>
        <time>2026-06-19T22:25:40.215636929Z</time>
      </trkpt>
      <trkpt lat="47.636179" lon="20.656002">
        <ele>84.987</ele>
        <time>2026-06-19T22:26:00.215639474Z</time>
      </trkpt>
      <trkpt lat="47.636168" lon="20.655754">
        <ele>84.546</ele>
        <time>2026-06-19T22:26:20.215642018Z</time>
      </trkpt>
      <trkpt lat="47.636263" lon="20.655445">
        <ele>83.723</ele>
        <time>2026-06-19T22:26:40.215644563Z</time>
      </trkpt>
      <trkpt lat="47.636285" lon="20.655150">
        <ele>84.697</ele>
        <time>2026-06-19T22:27:00.215647138Z</time>
      </trkpt>
      <trkpt lat="47.636330" lon="20.655121">
        <ele>84.739</ele>
        <time>2026-06-19T22:27:20.215649713Z</time>
      </trkpt>
      <trkpt lat="47.636359" lon="20.655287">
        <ele>84.017</ele>
        <time>2026-06-19T22:27:40.215652288Z</time>
      </trkpt>
      <trkpt lat="47.636358" lon="20.655213">
        <ele>84.388</ele>
        <time>2026-06-19T22:28:00.215654973Z</time>
      </trkpt>
      <trkpt lat="47.636462" lon="20.655182">
        <ele>84.524</ele>
        <time>2026-06-19T22:28:20.215657618Z</time>
      </trkpt>
      <trkpt lat="47.636609" lon="20.655247">
        <ele>84.826</ele>
        <time>2026-06-19T22:28:40.215660212Z</time>
      </trkpt>
      <trkpt lat="47.636774" lon="20.655602">
        <ele>84.409</ele>
        <time>2026-06-19T22:29:00.215662767Z</time>
      </trkpt>
      <trkpt lat="47.636843" lon="20.655663">
        <ele>84.660</ele>
        <time>2026-06-19T22:29:20.215665402Z</time>
      </trkpt>
      <trkpt lat="47.636961" lon="20.656046">
        <ele>85.175</ele>
        <time>2026-06-19T22:29:40.215667977Z</time>
      </trkpt>
      <trkpt lat="47.637269" lon="20.656702">
        <ele>86.168</ele>
        <time>2026-06-19T22:30:00.215670522Z</time>
      </trkpt>
      <trkpt lat="47.637389" lon="20.657258">
        <ele>86.380</ele>
        <time>2026-06-19T22:30:20.215673147Z</time>
      </trkpt>
      <trkpt lat="47.637544" lon="20.657656">
        <ele>85.079</ele>
        <time>2026-06-19T22:30:40.215675681Z</time>
      </trkpt>
      <trkpt lat="47.637743" lon="20.657886">
        <ele>85.336</ele>
        <time>2026-06-19T22:31:00.215678587Z</time>
      </trkpt>
      <trkpt lat="47.637830" lon="20.657913">
        <ele>85.660</ele>
        <time>2026-06-19T22:31:20.215681192Z</time>
      </trkpt>
      <trkpt lat="47.638085" lon="20.657845">
        <ele>86.132</ele>
        <time>2026-06-19T22:31:40.215683736Z</time>
      </trkpt>
      <trkpt lat="47.638174" lon="20.657774">
        <ele>86.460</ele>
        <time>2026-06-19T22:32:00.215686281Z</time>
      </trkpt>
      <trkpt lat="47.638219" lon="20.657654">
        <ele>85.539</ele>
        <time>2026-06-19T22:32:20.215688946Z</time>
      </trkpt>
      <trkpt lat="47.638149" lon="20.657260">
        <ele>83.301</ele>
        <time>2026-06-19T22:32:40.215691531Z</time>
      </trkpt>
      <trkpt lat="47.638147" lon="20.656885">
        <ele>83.021</ele>
        <time>2026-06-19T22:33:00.215699336Z</time>
      </trkpt>
      <trkpt lat="47.638457" lon="20.655715">
        <ele>83.009</ele>
        <time>2026-06-19T22:33:20.215702051Z</time>
      </trkpt>
      <trkpt lat="47.638549" lon="20.654746">
        <ele>84.765</ele>
        <time>2026-06-19T22:33:40.215704606Z</time>
      </trkpt>
      <trkpt lat="47.638677" lon="20.654407">
        <ele>84.990</ele>
        <time>2026-06-19T22:34:00.215707180Z</time>
      </trkpt>
      <trkpt lat="47.638671" lon="20.653637">
        <ele>83.023</ele>
        <time>2026-06-19T22:34:20.215709775Z</time>
      </trkpt>
      <trkpt lat="47.638795" lon="20.653222">
        <ele>84.265</ele>
        <time>2026-06-19T22:34:40.215712360Z</time>
      </trkpt>
      <trkpt lat="47.638948" lon="20.653094">
        <ele>84.484</ele>
        <time>2026-06-19T22:35:00.215714895Z</time>
      </trkpt>
      <trkpt lat="47.638805" lon="20.653176">
        <ele>84.121</ele>
        <time>2026-06-19T22:35:20.215717440Z</time>
      </trkpt>
      <trkpt lat="47.638944" lon="20.653130">
        <ele>84.415</ele>
        <time>2026-06-19T22:35:40.215720014Z</time>
      </trkpt>
      <trkpt lat="47.638908" lon="20.653093">
        <ele>84.197</ele>
        <time>2026-06-19T22:36:00.215722569Z</time>
      </trkpt>
      <trkpt lat="47.638992" lon="20.653048">
        <ele>84.795</ele>
        <time>2026-06-19T22:36:20.215725114Z</time>
      </trkpt>
      <trkpt lat="47.638898" lon="20.653045">
        <ele>84.128</ele>
        <time>2026-06-19T22:36:40.215727769Z</time>
      </trkpt>
      <trkpt lat="47.639001" lon="20.653023">
        <ele>84.889</ele>
        <time>2026-06-19T22:37:00.215730374Z</time>
      </trkpt>
      <trkpt lat="47.638967" lon="20.653048">
        <ele>84.617</ele>
        <time>2026-06-19T22:37:20.215732929Z</time>
      </trkpt>
      <trkpt lat="47.638955" lon="20.653010">
        <ele>84.509</ele>
        <time>2026-06-19T22:37:40.215735513Z</time>
      </trkpt>
      <trkpt lat="47.638948" lon="20.653077">
        <ele>84.424</ele>
        <time>2026-06-19T22:38:00.215738098Z</time>
      </trkpt>
      <trkpt lat="47.639046" lon="20.653072">
        <ele>85.139</ele>
        <time>2026-06-19T22:38:20.215740663Z</time>
      </trkpt>
      <trkpt lat="47.639037" lon="20.652998">
        <ele>85.172</ele>
        <time>2026-06-19T22:38:40.215743228Z</time>
      </trkpt>
      <trkpt lat="47.638945" lon="20.652957">
        <ele>84.484</ele>
        <time>2026-06-19T22:39:00.215745783Z</time>
      </trkpt>
      <trkpt lat="47.638971" lon="20.653039">
        <ele>84.643</ele>
        <time>2026-06-19T22:39:20.215748367Z</time>
      </trkpt>
      <trkpt lat="47.638887" lon="20.653049">
        <ele>84.060</ele>
        <time>2026-06-19T22:39:40.215750922Z</time>
      </trkpt>
      <trkpt lat="47.638929" lon="20.653078">
        <ele>84.384</ele>
        <time>2026-06-19T22:40:00.215753447Z</time>
      </trkpt>
      <trkpt lat="47.639003" lon="20.653088">
        <ele>84.846</ele>
        <time>2026-06-19T22:40:20.215755972Z</time>
      </trkpt>
      <trkpt lat="47.639074" lon="20.653000">
        <ele>85.354</ele>
        <time>2026-06-19T22:40:40.215758627Z</time>
      </trkpt>
      <trkpt lat="47.638951" lon="20.653080">
        <ele>84.466</ele>
        <time>2026-06-19T22:41:00.215761302Z</time>
      </trkpt>
      <trkpt lat="47.639055" lon="20.653040">
        <ele>85.229</ele>
        <time>2026-06-19T22:41:20.215763907Z</time>
      </trkpt>
      <trkpt lat="47.639008" lon="20.653057">
        <ele>84.921</ele>
        <time>2026-06-19T22:41:40.215766521Z</time>
      </trkpt>
      <trkpt lat="47.638989" lon="20.652999">
        <ele>84.709</ele>
        <time>2026-06-19T22:42:00.215769136Z</time>
      </trkpt>
      <trkpt lat="47.639031" lon="20.653053">
        <ele>85.058</ele>
        <time>2026-06-19T22:42:20.215771661Z</time>
      </trkpt>
      <trkpt lat="47.638950" lon="20.653144">
        <ele>84.453</ele>
        <time>2026-06-19T22:42:40.215774236Z</time>
      </trkpt>
      <trkpt lat="47.639000" lon="20.653055">
        <ele>84.846</ele>
        <time>2026-06-19T22:43:00.215776831Z</time>
      </trkpt>
      <trkpt lat="47.638945" lon="20.653114">
        <ele>84.448</ele>
        <time>2026-06-19T22:43:20.215779416Z</time>
      </trkpt>
    </trkseg>
  </trk></gpx>
